{"type":"FeatureCollection","features":[{"type":"Feature","properties":{"id":"L-KEYBRIDGE","name":"Francis Scott Key Bridge (I-695)","kind":"link"},"geometry":{"type":"MultiLineString","coordinates":[[[-76.5395,39.20978],[-76.53908,39.20991],[-76.53869,39.21003],[-76.53819,39.2102],[-76.53778,39.21035],[-76.53736,39.21052],[-76.53706,39.21065],[-76.53675,39.2108],[-76.53643,39.21096],[-76.53606,39.21115],[-76.53558,39.21143],[-76.53523,39.21164],[-76.53495,39.21183],[-76.53465,39.21204],[-76.53437,39.21225],[-76.53362,39.21283],[-76.52973,39.21584]],[[-76.51593,39.22653],[-76.51637,39.22622],[-76.51672,39.22598],[-76.51706,39.22573],[-76.5175,39.22541],[-76.51788,39.22512],[-76.51821,39.22486],[-76.52076,39.22289],[-76.52679,39.21823]],[[-76.52679,39.21823],[-76.5298,39.2159]],[[-76.5298,39.2159],[-76.5337,39.21289],[-76.53409,39.21258],[-76.53464,39.21216],[-76.53499,39.21191],[-76.53528,39.21172],[-76.53561,39.21151],[-76.53595,39.21131],[-76.53629,39.21113],[-76.5366,39.21097],[-76.53693,39.21081],[-76.53728,39.21065],[-76.5377,39.21048],[-76.53813,39.21031],[-76.53858,39.21016],[-76.53898,39.21003],[-76.53954,39.20986]],[[-76.52672,39.21816],[-76.52071,39.22281],[-76.51991,39.22343],[-76.51922,39.22397],[-76.51872,39.22435],[-76.51826,39.22471],[-76.51784,39.22503],[-76.51741,39.22536],[-76.51686,39.22577],[-76.51636,39.22612],[-76.51586,39.22647]],[[-76.52973,39.21584],[-76.52672,39.21816]]]}},{"type":"Feature","properties":{"id":"L-FORTMCHENRY","name":"Fort McHenry Tunnel (I-95)","kind":"link"},"geometry":{"type":"MultiLineString","coordinates":[[[-76.56639,39.2639],[-76.57326,39.26085],[-76.57376,39.26065],[-76.57431,39.26048],[-76.57495,39.26032],[-76.57558,39.26021],[-76.57621,39.26011],[-76.57688,39.26004],[-76.57752,39.26001],[-76.57818,39.26002],[-76.57881,39.26005],[-76.57941,39.26013],[-76.57996,39.26022],[-76.58055,39.26035],[-76.58109,39.26051],[-76.58161,39.26071],[-76.58207,39.2609],[-76.58292,39.2613],[-76.58588,39.26285],[-76.58684,39.26332],[-76.58755,39.26364],[-76.58827,39.26393],[-76.5897,39.26442]],[[-76.58976,39.26429],[-76.58833,39.26383],[-76.58763,39.26354],[-76.58693,39.26321],[-76.58597,39.26273],[-76.58302,39.26119],[-76.58217,39.26078],[-76.58169,39.26059],[-76.58117,39.26039],[-76.58061,39.26022],[-76.58002,39.26009],[-76.57945,39.26],[-76.57884,39.25991],[-76.5782,39.25988],[-76.57753,39.25988],[-76.57687,39.25991],[-76.57619,39.25998],[-76.57554,39.26008],[-76.5749,39.26019],[-76.57426,39.26035],[-76.57369,39.26053],[-76.57318,39.26073],[-76.56652,39.26367]],[[-76.5898,39.26419],[-76.58839,39.26374],[-76.58771,39.26345],[-76.58701,39.26311],[-76.58607,39.26262],[-76.58312,39.26108],[-76.58227,39.26067],[-76.58178,39.26047],[-76.58125,39.26027],[-76.58068,39.2601],[-76.58008,39.25996],[-76.57949,39.25986],[-76.57887,39.25978],[-76.57821,39.25975],[-76.57753,39.25974],[-76.57686,39.25977],[-76.57617,39.25984],[-76.57551,39.25994],[-76.57486,39.26006],[-76.5742,39.26022],[-76.57362,39.26041],[-76.57311,39.26061],[-76.56645,39.26358]],[[-76.56647,39.264],[-76.57334,39.26098],[-76.57383,39.26078],[-76.57437,39.26061],[-76.57499,39.26045],[-76.57561,39.26034],[-76.57623,39.26024],[-76.57689,39.26018],[-76.57752,39.26015],[-76.57817,39.26015],[-76.57878,39.26018],[-76.57937,39.26026],[-76.5799,39.26035],[-76.58049,39.26048],[-76.58102,39.26063],[-76.58153,39.26083],[-76.58198,39.26101],[-76.58282,39.26141],[-76.58578,39.26296],[-76.58676,39.26342],[-76.58747,39.26373],[-76.58821,39.26402],[-76.58965,39.26452]]]}},{"type":"Feature","properties":{"id":"L-HARBORTUNNEL","name":"Baltimore Harbor Tunnel (I-895)","kind":"link"},"geometry":{"type":"MultiLineString","coordinates":[[[-76.57664,39.24602],[-76.57573,39.24755],[-76.56632,39.26167],[-76.56546,39.26261],[-76.56527,39.26279]],[[-76.56348,39.26424],[-76.56396,39.26391]],[[-76.56376,39.26393],[-76.56334,39.26422]],[[-76.56426,39.26371],[-76.56468,39.26341],[-76.56501,39.26316],[-76.56524,39.26297]],[[-76.56556,39.26266],[-76.56642,39.26172],[-76.57583,39.2476],[-76.57675,39.24606]],[[-76.56491,39.26311],[-76.56459,39.26335],[-76.56401,39.26376]]]}},{"type":"Feature","properties":{"id":"C-I895-TUNNEL","name":"Harbor Tunnel (I-895)","kind":"corridor"},"geometry":{"type":"MultiLineString","coordinates":[[[-76.57664,39.24602],[-76.57573,39.24755],[-76.56632,39.26167],[-76.56546,39.26261],[-76.56527,39.26279]],[[-76.56348,39.26424],[-76.56396,39.26391]],[[-76.56376,39.26393],[-76.56334,39.26422]],[[-76.56426,39.26371],[-76.56468,39.26341],[-76.56501,39.26316],[-76.56524,39.26297]],[[-76.56556,39.26266],[-76.56642,39.26172],[-76.57583,39.2476],[-76.57675,39.24606]],[[-76.56491,39.26311],[-76.56459,39.26335],[-76.56401,39.26376]]]}},{"type":"Feature","properties":{"id":"C-I95-TUNNEL","name":"Fort McHenry Tunnel (I-95)","kind":"corridor"},"geometry":{"type":"MultiLineString","coordinates":[[[-76.56639,39.2639],[-76.57326,39.26085],[-76.57376,39.26065],[-76.57431,39.26048],[-76.57495,39.26032],[-76.57558,39.26021],[-76.57621,39.26011],[-76.57688,39.26004],[-76.57752,39.26001],[-76.57818,39.26002],[-76.57881,39.26005],[-76.57941,39.26013],[-76.57996,39.26022],[-76.58055,39.26035],[-76.58109,39.26051],[-76.58161,39.26071],[-76.58207,39.2609],[-76.58292,39.2613],[-76.58588,39.26285],[-76.58684,39.26332],[-76.58755,39.26364],[-76.58827,39.26393],[-76.5897,39.26442]],[[-76.58976,39.26429],[-76.58833,39.26383],[-76.58763,39.26354],[-76.58693,39.26321],[-76.58597,39.26273],[-76.58302,39.26119],[-76.58217,39.26078],[-76.58169,39.26059],[-76.58117,39.26039],[-76.58061,39.26022],[-76.58002,39.26009],[-76.57945,39.26],[-76.57884,39.25991],[-76.5782,39.25988],[-76.57753,39.25988],[-76.57687,39.25991],[-76.57619,39.25998],[-76.57554,39.26008],[-76.5749,39.26019],[-76.57426,39.26035],[-76.57369,39.26053],[-76.57318,39.26073],[-76.56652,39.26367]],[[-76.5898,39.26419],[-76.58839,39.26374],[-76.58771,39.26345],[-76.58701,39.26311],[-76.58607,39.26262],[-76.58312,39.26108],[-76.58227,39.26067],[-76.58178,39.26047],[-76.58125,39.26027],[-76.58068,39.2601],[-76.58008,39.25996],[-76.57949,39.25986],[-76.57887,39.25978],[-76.57821,39.25975],[-76.57753,39.25974],[-76.57686,39.25977],[-76.57617,39.25984],[-76.57551,39.25994],[-76.57486,39.26006],[-76.5742,39.26022],[-76.57362,39.26041],[-76.57311,39.26061],[-76.56645,39.26358]],[[-76.56647,39.264],[-76.57334,39.26098],[-76.57383,39.26078],[-76.57437,39.26061],[-76.57499,39.26045],[-76.57561,39.26034],[-76.57623,39.26024],[-76.57689,39.26018],[-76.57752,39.26015],[-76.57817,39.26015],[-76.57878,39.26018],[-76.57937,39.26026],[-76.5799,39.26035],[-76.58049,39.26048],[-76.58102,39.26063],[-76.58153,39.26083],[-76.58198,39.26101],[-76.58282,39.26141],[-76.58578,39.26296],[-76.58676,39.26342],[-76.58747,39.26373],[-76.58821,39.26402],[-76.58965,39.26452]]]}},{"type":"Feature","properties":{"id":"C-I695","name":"Baltimore Beltway (I-695)","kind":"corridor"},"geometry":{"type":"MultiLineString","coordinates":[[[-76.47324,39.23701],[-76.47346,39.23705],[-76.47368,39.23711]],[[-76.47368,39.23711],[-76.47401,39.23719],[-76.47447,39.23732],[-76.47493,39.23747],[-76.47554,39.23769],[-76.47642,39.23799],[-76.4769,39.23815],[-76.47733,39.23827],[-76.47776,39.23837],[-76.4782,39.23846],[-76.47861,39.23852],[-76.47909,39.23857],[-76.47953,39.23861],[-76.47998,39.23863],[-76.48044,39.23864],[-76.48091,39.23863],[-76.48144,39.2386],[-76.48395,39.23841]],[[-76.5081,39.23137],[-76.51226,39.22882]],[[-76.51335,39.22818],[-76.51403,39.22774],[-76.51518,39.22702],[-76.51593,39.22653]],[[-76.59039,39.20633],[-76.59078,39.20632]],[[-76.59304,39.20641],[-76.59436,39.20648]],[[-76.62755,39.20364],[-76.62872,39.20332]],[[-76.63551,39.20336],[-76.63636,39.20369],[-76.63727,39.20407],[-76.6381,39.20446],[-76.63906,39.20495],[-76.63991,39.20541],[-76.64103,39.20598]],[[-76.64225,39.20665],[-76.6427,39.2069]],[[-76.64965,39.21073],[-76.6505,39.21119],[-76.65109,39.21153]],[[-76.48777,39.33209],[-76.48698,39.33135]],[[-76.67371,39.24497],[-76.6753,39.24655]],[[-76.46804,39.27405],[-76.46875,39.27475],[-76.46916,39.27516],[-76.4695,39.27549],[-76.46985,39.27582],[-76.47023,39.27617],[-76.47065,39.27653],[-76.47105,39.27686],[-76.47146,39.27717],[-76.47187,39.27746],[-76.47235,39.27779],[-76.47292,39.27816],[-76.47339,39.27843],[-76.47395,39.27875],[-76.47444,39.279],[-76.47503,39.27929],[-76.47565,39.27957],[-76.47625,39.27981],[-76.4769,39.28006],[-76.47754,39.28029],[-76.47829,39.28052],[-76.47877,39.28066]],[[-76.72561,39.27711],[-76.72463,39.27411],[-76.72446,39.27367],[-76.72428,39.27328],[-76.72406,39.27291],[-76.72385,39.27258],[-76.72364,39.27231],[-76.72338,39.27201],[-76.72311,39.27175],[-76.72279,39.27148],[-76.72251,39.27126],[-76.72217,39.27102],[-76.72169,39.27072]],[[-76.72169,39.27072],[-76.71109,39.2646],[-76.70954,39.26371]],[[-76.4904,39.3346],[-76.49008,39.33429]],[[-76.5069,39.2321],[-76.5081,39.23137]],[[-76.47877,39.28066],[-76.48551,39.28259]],[[-76.73481,39.28376],[-76.73159,39.28192]],[[-76.48397,39.32838],[-76.48353,39.32781],[-76.48337,39.32759],[-76.48324,39.32737],[-76.48314,39.32715],[-76.48307,39.32699],[-76.483,39.32677],[-76.48295,39.32655],[-76.48293,39.32639],[-76.48294,39.32612]],[[-76.70279,39.26037],[-76.7057,39.26191],[-76.70621,39.26218]],[[-76.70236,39.25982],[-76.70052,39.25883],[-76.70006,39.25858],[-76.69957,39.25833],[-76.69907,39.2581],[-76.69844,39.25784],[-76.69792,39.25764],[-76.69725,39.25742],[-76.69597,39.25708],[-76.69506,39.25684]],[[-76.51325,39.22808],[-76.51259,39.22852]],[[-76.66785,39.2362],[-76.6677,39.23533],[-76.66761,39.23474],[-76.66752,39.23422],[-76.6674,39.23369]],[[-76.49008,39.33429],[-76.48818,39.33247]],[[-76.66719,39.23289],[-76.66699,39.2324],[-76.66685,39.23208]],[[-76.48551,39.28259],[-76.48652,39.28287]],[[-76.6766,39.24779],[-76.67809,39.24924],[-76.67866,39.24975]],[[-76.7109,39.26479],[-76.71105,39.26487]],[[-76.47869,39.28035],[-76.47801,39.28014],[-76.47765,39.28002],[-76.477,39.2798],[-76.47636,39.27955],[-76.47579,39.27932],[-76.47519,39.27904],[-76.47458,39.27875],[-76.47411,39.27851],[-76.47356,39.2782],[-76.47311,39.27793],[-76.47255,39.27757],[-76.47207,39.27724],[-76.47167,39.27695],[-76.47127,39.27664],[-76.47087,39.27632],[-76.47048,39.27598],[-76.4701,39.27564],[-76.46978,39.27532],[-76.46945,39.275],[-76.46904,39.27461],[-76.46785,39.27344],[-76.4675,39.27308]],[[-76.4675,39.27308],[-76.46705,39.27264],[-76.46373,39.26936],[-76.46343,39.26904],[-76.46322,39.26881],[-76.46301,39.26856],[-76.46285,39.26836],[-76.46272,39.26817],[-76.46258,39.26796],[-76.46241,39.26768],[-76.46226,39.26742],[-76.46213,39.26716],[-76.46202,39.26692],[-76.46192,39.26666],[-76.46184,39.26643],[-76.46175,39.26614],[-76.46166,39.26584],[-76.46148,39.2652],[-76.46028,39.26073],[-76.45963,39.2583]],[[-76.48788,39.33219],[-76.48777,39.33209]],[[-76.74401,39.30596],[-76.74372,39.30342],[-76.74325,39.29961]],[[-76.74325,39.29961],[-76.74239,39.29276],[-76.74231,39.29222],[-76.74227,39.29193],[-76.74219,39.29156],[-76.74207,39.29111],[-76.74195,39.29074],[-76.74176,39.29024],[-76.74162,39.28989],[-76.74147,39.28959],[-76.74134,39.28934],[-76.74121,39.28911],[-76.741,39.28877]],[[-76.50335,39.29654],[-76.50356,39.29591]],[[-76.6677,39.23674],[-76.6678,39.23721],[-76.66788,39.23756],[-76.66797,39.23791],[-76.66808,39.23823],[-76.66828,39.23877],[-76.6684,39.23905]],[[-76.69221,39.25636],[-76.69449,39.25696],[-76.69579,39.2573],[-76.6968,39.25757],[-76.69715,39.25767],[-76.69743,39.25776]],[[-76.73839,39.28599],[-76.73811,39.28577],[-76.73783,39.28557],[-76.73742,39.28531],[-76.73703,39.28507],[-76.73571,39.28431]],[[-76.46693,39.2374],[-76.46739,39.23726],[-76.46788,39.23714],[-76.46847,39.23701],[-76.46899,39.23693],[-76.46939,39.23687],[-76.46981,39.23684],[-76.47022,39.23681],[-76.47079,39.2368],[-76.47134,39.23681],[-76.47183,39.23683],[-76.47223,39.23687],[-76.47271,39.23693],[-76.47324,39.23701]],[[-76.45963,39.24212],[-76.46006,39.24176],[-76.46152,39.24055],[-76.46195,39.24019],[-76.46258,39.23968],[-76.46285,39.23947],[-76.46319,39.23923],[-76.4636,39.23896],[-76.46411,39.23865],[-76.46471,39.23832],[-76.46517,39.23809],[-76.46559,39.2379],[-76.46631,39.23762],[-76.46693,39.2374]],[[-76.45896,39.24267],[-76.45963,39.24212]],[[-76.45605,39.24573],[-76.4564,39.24523]],[[-76.45577,39.24621],[-76.45591,39.24597],[-76.45605,39.24573]],[[-76.48939,39.28341],[-76.4856,39.28232]],[[-76.48682,39.33146],[-76.48761,39.33221]],[[-76.48372,39.32855],[-76.4838,39.32863]],[[-76.48139,39.32686],[-76.48175,39.32704],[-76.48198,39.32718],[-76.48221,39.32733],[-76.48245,39.32748],[-76.48266,39.32763],[-76.48278,39.32772]],[[-76.48038,39.32649],[-76.48101,39.32671],[-76.48119,39.32678],[-76.48139,39.32686]],[[-76.47983,39.32629],[-76.48038,39.32649]],[[-76.47805,39.32311],[-76.47797,39.32325],[-76.47788,39.32345],[-76.47781,39.32365],[-76.47777,39.32382],[-76.47775,39.32401],[-76.47775,39.32419],[-76.47776,39.32436],[-76.47778,39.32452],[-76.47784,39.3247],[-76.47791,39.32487],[-76.47801,39.32505],[-76.47816,39.32527],[-76.47835,39.32549],[-76.47852,39.32564],[-76.47868,39.32576],[-76.47884,39.32586],[-76.47899,39.32595],[-76.47917,39.32604],[-76.47938,39.32613],[-76.47959,39.32621],[-76.47983,39.32629]],[[-76.48308,39.32173],[-76.48216,39.32176]],[[-76.66685,39.23208],[-76.66664,39.23171],[-76.66646,39.23141],[-76.66621,39.23104],[-76.66564,39.23024]],[[-76.67597,39.24688],[-76.67353,39.24452],[-76.67238,39.24341],[-76.67147,39.24253]],[[-76.68596,39.25412],[-76.68494,39.25373],[-76.68435,39.25345],[-76.68375,39.25315],[-76.68324,39.25289],[-76.68281,39.25264],[-76.68235,39.25237],[-76.68192,39.25208],[-76.68137,39.25172],[-76.68126,39.25164],[-76.68119,39.25159]],[[-76.68791,39.25487],[-76.68734,39.25468],[-76.6868,39.25447],[-76.68596,39.25412]],[[-76.68833,39.25501],[-76.68791,39.25487]],[[-76.69019,39.25555],[-76.68922,39.25529],[-76.6888,39.25516],[-76.68833,39.25501]],[[-76.69231,39.2561],[-76.69019,39.25555]],[[-76.69389,39.25653],[-76.69231,39.2561]],[[-76.73098,39.28161],[-76.72855,39.28034],[-76.72822,39.28014],[-76.72793,39.27996]],[[-76.73571,39.28431],[-76.73481,39.28376]],[[-76.48337,39.32497],[-76.48355,39.32474],[-76.4838,39.32446],[-76.48446,39.3237],[-76.48533,39.32271],[-76.48663,39.3213]],[[-76.48294,39.32612],[-76.48296,39.32591],[-76.48302,39.3257],[-76.4831,39.32546],[-76.48315,39.32533],[-76.48325,39.32516],[-76.48337,39.32497]],[[-76.741,39.28877],[-76.7408,39.28848],[-76.74053,39.2881],[-76.74021,39.28771],[-76.73994,39.28742],[-76.73965,39.28712],[-76.73934,39.28682],[-76.73903,39.28653]],[[-76.67085,39.24222],[-76.67336,39.24464],[-76.67371,39.24497]],[[-76.66921,39.24041],[-76.66969,39.24102],[-76.67022,39.24161],[-76.67085,39.24222]],[[-76.66668,39.23216],[-76.6668,39.23246],[-76.66694,39.23281],[-76.66712,39.23339],[-76.66722,39.23386],[-76.66748,39.23537]],[[-76.50054,39.28914],[-76.50087,39.28944],[-76.50114,39.2897]],[[-76.50114,39.2897],[-76.50148,39.29005],[-76.50182,39.29047],[-76.50201,39.29071]],[[-76.50201,39.29071],[-76.50238,39.29124]],[[-76.50307,39.29243],[-76.50317,39.29267],[-76.50324,39.29287],[-76.5033,39.29312]],[[-76.5033,39.29312],[-76.50335,39.29328],[-76.5034,39.29355],[-76.50344,39.29391],[-76.50346,39.29428],[-76.50345,39.2947],[-76.50342,39.29501],[-76.50336,39.29536],[-76.50327,39.29571],[-76.50317,39.29606],[-76.50302,39.29646],[-76.50277,39.29714]],[[-76.50082,39.30239],[-76.50072,39.30269],[-76.50062,39.30307],[-76.50054,39.30344]],[[-76.50054,39.30344],[-76.50049,39.30379],[-76.50044,39.30412],[-76.50042,39.30446],[-76.50041,39.30479],[-76.50041,39.30519],[-76.50043,39.30561],[-76.50048,39.30605],[-76.50056,39.30652],[-76.50065,39.30694],[-76.50077,39.3073],[-76.50088,39.30765],[-76.50101,39.30796],[-76.50118,39.30833]],[[-76.50212,39.31022],[-76.50231,39.3106]],[[-76.4939,39.31376],[-76.49346,39.31388],[-76.493,39.31401],[-76.49261,39.31416],[-76.49225,39.31432]],[[-76.49225,39.31432],[-76.4919,39.3145],[-76.49155,39.31471],[-76.4912,39.31494],[-76.4909,39.31516],[-76.49059,39.31543],[-76.49031,39.3157],[-76.48999,39.31606],[-76.48974,39.31639],[-76.48938,39.31687],[-76.48889,39.31759],[-76.48843,39.31827],[-76.48817,39.31867],[-76.48793,39.31899],[-76.48777,39.31919],[-76.48749,39.31951],[-76.48732,39.31969],[-76.48707,39.31994],[-76.4868,39.32021],[-76.48656,39.32044],[-76.48631,39.32063],[-76.48607,39.32081],[-76.48578,39.32099],[-76.48547,39.32115],[-76.48523,39.32126],[-76.48494,39.32137],[-76.48469,39.32146],[-76.48444,39.32153],[-76.48412,39.3216],[-76.48385,39.32165],[-76.48359,39.32169],[-76.48331,39.32172],[-76.48308,39.32173]],[[-76.51586,39.22647],[-76.51551,39.2267],[-76.51512,39.22695],[-76.51474,39.22719],[-76.51397,39.22767],[-76.51325,39.22808]],[[-76.51229,39.22871],[-76.5116,39.22914],[-76.51057,39.22977]],[[-76.50749,39.23159],[-76.50678,39.23204],[-76.50568,39.23268],[-76.50451,39.23336]],[[-76.47929,39.2385],[-76.47863,39.23843],[-76.47822,39.23836],[-76.47778,39.23828],[-76.47737,39.23818],[-76.47693,39.23806],[-76.47647,39.23791],[-76.47559,39.2376],[-76.47499,39.23738],[-76.47451,39.23723],[-76.47405,39.2371],[-76.47368,39.23701]],[[-76.47323,39.23691],[-76.47273,39.23684],[-76.47223,39.23678],[-76.47184,39.23674],[-76.47133,39.23671],[-76.47079,39.2367],[-76.47021,39.23671],[-76.46979,39.23674],[-76.46937,39.23679],[-76.46896,39.23684],[-76.46844,39.23692],[-76.46784,39.23705],[-76.46735,39.23718],[-76.46687,39.23732],[-76.46625,39.23754],[-76.46554,39.23782]],[[-76.46554,39.23782],[-76.46511,39.23801],[-76.46465,39.23824],[-76.46404,39.23857],[-76.46354,39.23888],[-76.46311,39.23916],[-76.46277,39.2394],[-76.4625,39.23961],[-76.46187,39.24012],[-76.46144,39.24048],[-76.45997,39.2417],[-76.45954,39.24204]],[[-76.45954,39.24204],[-76.45891,39.24257]],[[-76.45891,39.24257],[-76.45843,39.24297],[-76.45788,39.24344],[-76.45753,39.24377],[-76.45719,39.24411],[-76.45686,39.24447],[-76.45656,39.24483],[-76.45633,39.24513]],[[-76.45633,39.24513],[-76.45599,39.24563]],[[-76.492,39.31478],[-76.49234,39.3146],[-76.49269,39.31444],[-76.49308,39.31428],[-76.49352,39.31414],[-76.49395,39.31402]],[[-76.48931,39.31775],[-76.48973,39.31704],[-76.49006,39.31655],[-76.49031,39.31621],[-76.49059,39.31588],[-76.49084,39.31562],[-76.49109,39.3154],[-76.4914,39.31517],[-76.49169,39.31497],[-76.492,39.31478]],[[-76.48736,39.32054],[-76.48763,39.32025],[-76.48786,39.31999],[-76.48803,39.31979],[-76.48826,39.31948],[-76.48843,39.31921],[-76.48864,39.31887],[-76.48889,39.31845],[-76.48891,39.31842],[-76.48931,39.31775]],[[-76.48663,39.3213],[-76.48698,39.32094],[-76.48736,39.32054]],[[-76.50317,39.29702],[-76.50327,39.29675]],[[-76.50114,39.30245],[-76.50134,39.30189]],[[-76.50082,39.30383],[-76.50088,39.3035],[-76.50096,39.30312],[-76.50105,39.30275],[-76.50114,39.30245]],[[-76.56514,39.20497],[-76.56463,39.20496],[-76.56232,39.20489],[-76.56147,39.20486],[-76.56072,39.20483],[-76.56006,39.20478],[-76.5593,39.20471],[-76.55848,39.20461],[-76.55788,39.20454],[-76.55716,39.20442],[-76.55641,39.2043],[-76.55489,39.20403],[-76.55421,39.20391],[-76.55364,39.20383],[-76.55324,39.2038],[-76.55277,39.20378],[-76.5523,39.20379],[-76.55182,39.20382],[-76.55143,39.20386],[-76.55101,39.20394],[-76.55058,39.20403],[-76.55025,39.20412],[-76.54991,39.20423],[-76.54956,39.20436]],[[-76.56704,39.20539],[-76.56754,39.20544]],[[-76.57579,39.2068],[-76.57532,39.20672],[-76.57469,39.20659],[-76.57405,39.20646],[-76.57347,39.20631]],[[-76.57059,39.20563],[-76.56996,39.20551]],[[-76.56996,39.20551],[-76.56942,39.20541],[-76.56914,39.20537],[-76.56853,39.20528],[-76.56796,39.20521]],[[-76.54956,39.20436],[-76.54923,39.2045],[-76.54888,39.20466]],[[-76.54888,39.20466],[-76.54844,39.2049],[-76.54798,39.20518]],[[-76.54798,39.20518],[-76.54547,39.20681]],[[-76.54489,39.20716],[-76.54425,39.20757]],[[-76.54302,39.20836],[-76.54268,39.20856]],[[-76.54268,39.20856],[-76.54247,39.20869],[-76.54224,39.20882],[-76.54192,39.20898],[-76.54161,39.20911],[-76.54123,39.20925],[-76.54069,39.20943],[-76.5395,39.20978]],[[-76.5395,39.20978],[-76.53908,39.20991],[-76.53869,39.21003],[-76.53819,39.2102],[-76.53778,39.21035],[-76.53736,39.21052],[-76.53706,39.21065],[-76.53675,39.2108],[-76.53643,39.21096],[-76.53606,39.21115],[-76.53558,39.21143],[-76.53523,39.21164],[-76.53495,39.21183],[-76.53465,39.21204],[-76.53437,39.21225],[-76.53362,39.21283],[-76.52973,39.21584]],[[-76.53954,39.20986],[-76.54073,39.20951],[-76.54127,39.20935],[-76.54165,39.20923],[-76.54201,39.20911],[-76.54238,39.20897],[-76.54264,39.20886],[-76.54289,39.20874]],[[-76.57636,39.20716],[-76.57933,39.20751],[-76.58012,39.2076]],[[-76.56754,39.20544],[-76.56848,39.20556],[-76.56941,39.20569],[-76.56984,39.20577]],[[-76.55401,39.20416],[-76.55485,39.2043],[-76.55636,39.20457],[-76.5571,39.2047],[-76.55781,39.20481],[-76.55844,39.20489],[-76.55923,39.20498],[-76.56003,39.20505],[-76.56069,39.20509],[-76.56147,39.20513],[-76.56231,39.20516],[-76.56516,39.20526],[-76.56564,39.20528],[-76.56612,39.20531],[-76.56704,39.20539]],[[-76.54971,39.2046],[-76.55006,39.20448],[-76.55036,39.20438],[-76.5507,39.20429],[-76.55109,39.20421],[-76.55149,39.20414],[-76.55187,39.2041],[-76.55231,39.20407],[-76.55278,39.20406],[-76.55323,39.20408],[-76.55361,39.20411],[-76.55401,39.20416]],[[-76.54903,39.20491],[-76.54939,39.20474],[-76.54971,39.2046]],[[-76.54512,39.20737],[-76.54569,39.20702]],[[-76.54289,39.20874],[-76.54324,39.20855]],[[-76.64882,39.20996],[-76.64469,39.20767]],[[-76.59305,39.20614],[-76.59181,39.20608],[-76.59116,39.20605],[-76.59074,39.20603],[-76.59032,39.20604]],[[-76.62677,39.2037],[-76.62361,39.20457]],[[-76.64255,39.20648],[-76.64124,39.20568],[-76.64062,39.2053],[-76.64018,39.20505],[-76.63934,39.20459],[-76.63836,39.20409]],[[-76.63836,39.20409],[-76.63753,39.20368],[-76.63665,39.20325],[-76.63581,39.20284],[-76.63552,39.20272],[-76.6352,39.20262],[-76.63488,39.20253]],[[-76.61799,39.2058],[-76.61483,39.20611]],[[-76.62783,39.20341],[-76.62677,39.2037]],[[-76.63109,39.20252],[-76.63063,39.20262],[-76.63024,39.20272],[-76.62962,39.20289],[-76.62911,39.20304]],[[-76.59992,39.20647],[-76.59775,39.20636]],[[-76.6011,39.20652],[-76.59992,39.20647]],[[-76.62274,39.20481],[-76.62114,39.20525],[-76.6205,39.20541],[-76.61988,39.20554],[-76.61937,39.20563],[-76.6188,39.20571],[-76.61799,39.2058]],[[-76.59032,39.20604],[-76.58989,39.20608],[-76.58937,39.20615],[-76.58885,39.20627]],[[-76.61204,39.20642],[-76.6108,39.20655]],[[-76.64988,39.21054],[-76.64882,39.20996]],[[-76.65875,39.21958],[-76.65866,39.21944]],[[-76.74297,39.2992],[-76.74304,39.29975],[-76.7435,39.30343],[-76.74386,39.30647]],[[-76.74153,39.29031],[-76.74172,39.29079],[-76.74183,39.29115],[-76.74194,39.29158],[-76.74202,39.29195],[-76.74207,39.29224],[-76.74214,39.29278],[-76.74297,39.2992]],[[-76.7382,39.28604],[-76.73853,39.28631],[-76.73884,39.28657]],[[-76.73884,39.28657],[-76.73889,39.28661]],[[-76.73903,39.28653],[-76.73873,39.28626],[-76.73839,39.28599]],[[-76.73145,39.28218],[-76.73352,39.28331]],[[-76.73107,39.28197],[-76.73145,39.28218]],[[-76.72768,39.2801],[-76.72802,39.2803],[-76.73084,39.28185]],[[-76.72724,39.27982],[-76.72746,39.27997],[-76.72768,39.2801]],[[-76.72524,39.27676],[-76.72544,39.27736],[-76.72561,39.27782],[-76.72575,39.27813],[-76.72598,39.27853],[-76.72619,39.27881],[-76.72642,39.27908],[-76.72666,39.27934],[-76.72694,39.27958],[-76.72724,39.27982]],[[-76.73159,39.28192],[-76.73128,39.28176]],[[-76.73128,39.28176],[-76.73098,39.28161]],[[-76.72793,39.27996],[-76.72749,39.27968]],[[-76.72749,39.27968],[-76.7273,39.27954],[-76.72712,39.27941],[-76.72688,39.27921],[-76.72663,39.27896],[-76.72641,39.27872],[-76.72616,39.27844],[-76.72594,39.27806],[-76.72581,39.27777],[-76.72561,39.27711]],[[-76.73446,39.28382],[-76.73552,39.2844],[-76.73597,39.28465],[-76.73646,39.28491],[-76.73693,39.28519],[-76.73732,39.28543],[-76.73771,39.28568],[-76.73798,39.28588],[-76.7382,39.28604]],[[-76.72507,39.27623],[-76.72524,39.27676]],[[-76.70621,39.26218],[-76.7069,39.26255]],[[-76.7069,39.26255],[-76.70768,39.26297],[-76.70837,39.26335],[-76.7109,39.26479]],[[-76.70663,39.26211],[-76.70364,39.26053],[-76.70236,39.25982]],[[-76.69007,39.25581],[-76.69105,39.25605]],[[-76.68105,39.25172],[-76.6818,39.25222],[-76.68223,39.2525],[-76.68271,39.25279],[-76.68317,39.25306],[-76.68363,39.25331],[-76.68424,39.25363],[-76.68483,39.25391],[-76.68531,39.25413],[-76.68585,39.25437],[-76.68667,39.2547],[-76.68717,39.25492]],[[-76.68717,39.25492],[-76.68766,39.25509]],[[-76.68766,39.25509],[-76.68809,39.25524]],[[-76.68809,39.25524],[-76.68857,39.25539],[-76.68914,39.25555],[-76.69007,39.25581]],[[-76.66459,39.22879],[-76.6645,39.22866]],[[-76.66443,39.22886],[-76.66605,39.2311],[-76.66629,39.23148],[-76.66647,39.23176],[-76.66668,39.23216]],[[-76.66179,39.2246],[-76.66159,39.22428]],[[-76.66138,39.22427],[-76.66157,39.2246]],[[-76.66159,39.22428],[-76.66013,39.22186]],[[-76.6604,39.22265],[-76.6611,39.22382],[-76.66138,39.22427]],[[-76.66345,39.2275],[-76.6637,39.22784]],[[-76.65866,39.21944],[-76.6586,39.21933],[-76.65855,39.21924]],[[-76.65855,39.21924],[-76.65847,39.21911]],[[-76.65849,39.2195],[-76.65858,39.21964]],[[-76.65837,39.21931],[-76.65845,39.21944],[-76.65849,39.2195]],[[-76.62443,39.20452],[-76.62755,39.20364]],[[-76.64817,39.20989],[-76.6486,39.21014]],[[-76.65109,39.21153],[-76.6518,39.21201],[-76.65224,39.21235]],[[-76.59436,39.20648],[-76.59726,39.20661]],[[-76.51593,39.22653],[-76.51637,39.22622],[-76.51672,39.22598],[-76.51706,39.22573],[-76.5175,39.22541],[-76.51788,39.22512],[-76.51821,39.22486],[-76.52076,39.22289],[-76.52679,39.21823]],[[-76.63488,39.20253],[-76.63455,39.20247],[-76.63415,39.20241],[-76.63369,39.20237],[-76.6333,39.20235]],[[-76.6333,39.20235],[-76.63283,39.20235],[-76.63251,39.20236],[-76.63221,39.20238],[-76.63191,39.2024]],[[-76.63191,39.2024],[-76.6317,39.20242],[-76.63148,39.20245],[-76.63109,39.20252]],[[-76.63103,39.20277],[-76.6314,39.20273],[-76.63181,39.20271]],[[-76.63181,39.20271],[-76.63228,39.20269],[-76.6326,39.2027],[-76.63294,39.20272],[-76.6334,39.20277],[-76.63371,39.20282],[-76.63414,39.20291],[-76.63444,39.203],[-76.63471,39.20307],[-76.63499,39.20317],[-76.63525,39.20326],[-76.63551,39.20336]],[[-76.64103,39.20598],[-76.64163,39.20631]],[[-76.65258,39.21237],[-76.65229,39.21211],[-76.652,39.21187],[-76.65167,39.21162],[-76.6512,39.2113],[-76.65069,39.211],[-76.65031,39.21078]],[[-76.62361,39.20457],[-76.62274,39.20481]],[[-76.61863,39.2059],[-76.61942,39.20579],[-76.61992,39.2057],[-76.62056,39.20557],[-76.62121,39.20541],[-76.62286,39.20495]],[[-76.60836,39.20674],[-76.60763,39.20676],[-76.60689,39.20676],[-76.60629,39.20676]],[[-76.61207,39.20657],[-76.61447,39.20633]],[[-76.61483,39.20611],[-76.61204,39.20642]],[[-76.58885,39.20627],[-76.58842,39.2064],[-76.58778,39.20664]],[[-76.5972,39.20634],[-76.59634,39.2063]],[[-76.59775,39.20636],[-76.5972,39.20634]],[[-76.59634,39.2063],[-76.59305,39.20614]],[[-76.60101,39.2068],[-76.60421,39.20695],[-76.60521,39.20699],[-76.60589,39.20699],[-76.6063,39.207]],[[-76.59982,39.20674],[-76.60101,39.2068]],[[-76.59832,39.20667],[-76.59982,39.20674]],[[-76.59726,39.20661],[-76.59832,39.20667]],[[-76.62286,39.20495],[-76.62372,39.2047]],[[-76.62372,39.2047],[-76.62443,39.20452]],[[-76.72124,39.2707],[-76.72204,39.27119],[-76.72238,39.27141],[-76.72267,39.27163],[-76.72295,39.27187],[-76.72321,39.27212],[-76.72346,39.27239],[-76.72367,39.27268],[-76.72388,39.27298],[-76.72409,39.27337],[-76.72429,39.2738],[-76.72443,39.27421],[-76.72484,39.2755],[-76.72507,39.27623]],[[-76.50252,39.31026],[-76.50149,39.30818]],[[-76.50268,39.3106],[-76.50252,39.31026]],[[-76.50231,39.3106],[-76.50239,39.31078],[-76.50243,39.31094],[-76.50246,39.31107],[-76.50247,39.31123],[-76.50247,39.31136],[-76.50245,39.31153],[-76.50242,39.31169],[-76.50238,39.31181],[-76.50232,39.31195],[-76.50225,39.31208],[-76.50214,39.31225],[-76.50205,39.31237],[-76.50193,39.3125],[-76.50177,39.31263],[-76.50163,39.31274],[-76.50147,39.31284],[-76.50133,39.31292],[-76.50112,39.31302],[-76.50095,39.31308],[-76.50078,39.31313],[-76.50061,39.31317],[-76.5004,39.31321],[-76.50021,39.31323],[-76.49997,39.31325],[-76.49594,39.31349],[-76.4954,39.31353],[-76.49479,39.3136],[-76.49429,39.31368],[-76.4939,39.31376]],[[-76.49395,39.31402],[-76.49434,39.31394],[-76.49484,39.31386],[-76.49544,39.3138],[-76.49597,39.31376],[-76.49998,39.31352],[-76.50025,39.3135],[-76.50047,39.31348],[-76.50069,39.31344],[-76.50089,39.31339],[-76.50108,39.31334],[-76.50125,39.31327],[-76.50145,39.31318],[-76.50165,39.31308],[-76.50183,39.31297],[-76.50199,39.31285],[-76.50218,39.31269],[-76.50233,39.31253],[-76.50246,39.31237],[-76.50257,39.3122],[-76.50265,39.31204],[-76.50271,39.31189],[-76.50276,39.31173],[-76.5028,39.31155],[-76.50282,39.31137],[-76.50282,39.31123],[-76.50281,39.31106],[-76.50279,39.31093],[-76.50275,39.31078],[-76.50268,39.3106]],[[-76.50149,39.30818],[-76.50133,39.30786]],[[-76.49994,39.28865],[-76.50021,39.28886],[-76.50054,39.28914]],[[-76.50117,39.2893],[-76.50059,39.28878]],[[-76.50059,39.28878],[-76.50026,39.28852],[-76.4998,39.28818],[-76.49939,39.28789],[-76.49895,39.28762],[-76.49849,39.28735],[-76.4979,39.28704],[-76.49574,39.28599],[-76.49357,39.28494],[-76.49306,39.2847],[-76.49253,39.28447],[-76.49182,39.28419],[-76.49117,39.28396],[-76.49072,39.28381],[-76.49027,39.28366],[-76.48939,39.28341]],[[-76.50238,39.29124],[-76.50255,39.29147],[-76.50271,39.29174],[-76.50284,39.29197],[-76.50307,39.29243]],[[-76.50257,39.29093],[-76.50218,39.2904],[-76.50179,39.28993],[-76.50145,39.28957],[-76.50117,39.2893]],[[-76.50292,39.29145],[-76.50257,39.29093]],[[-76.50277,39.29714],[-76.50252,39.29778]],[[-76.50352,39.29267],[-76.50334,39.29222],[-76.50319,39.29192]],[[-76.50319,39.29192],[-76.50306,39.29167],[-76.50292,39.29145]],[[-76.50252,39.29778],[-76.501,39.30183],[-76.50082,39.30239]],[[-76.50356,39.29591],[-76.5037,39.2954],[-76.50376,39.29505],[-76.5038,39.2947],[-76.50381,39.29428],[-76.50378,39.2939],[-76.50375,39.29355],[-76.5037,39.2933],[-76.50364,39.29307],[-76.50359,39.29288],[-76.50352,39.29267]],[[-76.50292,39.29767],[-76.50317,39.29702]],[[-76.50118,39.30833],[-76.50212,39.31022]],[[-76.48652,39.28287],[-76.48932,39.28367],[-76.49018,39.28392],[-76.49062,39.28406],[-76.49105,39.28421],[-76.49169,39.28444],[-76.49241,39.28473],[-76.49292,39.28495],[-76.4934,39.28518],[-76.49556,39.28622],[-76.49772,39.28728],[-76.4983,39.28758],[-76.49876,39.28784],[-76.4992,39.28812],[-76.49961,39.2884],[-76.49994,39.28865]],[[-76.4564,39.24523],[-76.45667,39.24488],[-76.45695,39.24453],[-76.45728,39.24417],[-76.45763,39.24382],[-76.45797,39.24351],[-76.4585,39.24305],[-76.45896,39.24267]],[[-76.45599,39.24563],[-76.45582,39.2459],[-76.45565,39.24617],[-76.45554,39.24636],[-76.45543,39.24659],[-76.45532,39.24688],[-76.45523,39.24714],[-76.45516,39.24737],[-76.45512,39.24757],[-76.45507,39.2479],[-76.45505,39.24822],[-76.45505,39.24845],[-76.45506,39.24869],[-76.45509,39.24895],[-76.45515,39.24924]],[[-76.45566,39.2505],[-76.45658,39.25211]],[[-76.45579,39.25003],[-76.45567,39.24979],[-76.45554,39.24948],[-76.45545,39.2492],[-76.45539,39.24894],[-76.45536,39.24868],[-76.45533,39.24846],[-76.45532,39.24822],[-76.45532,39.24791],[-76.45535,39.24759],[-76.45538,39.2474],[-76.45542,39.24718],[-76.4555,39.2469],[-76.45559,39.24662],[-76.45569,39.24641],[-76.45577,39.24621]],[[-76.45666,39.25158],[-76.45603,39.25046]],[[-76.45658,39.25211],[-76.45692,39.25272],[-76.45711,39.25314],[-76.45728,39.25356],[-76.45735,39.25376],[-76.45741,39.25397],[-76.4575,39.25431],[-76.45757,39.25469],[-76.45761,39.25499],[-76.45764,39.25529],[-76.45767,39.25573],[-76.45769,39.25617],[-76.4577,39.25654],[-76.45771,39.25666],[-76.45773,39.25727],[-76.45785,39.26002],[-76.45788,39.26035],[-76.4579,39.26062],[-76.45793,39.26091],[-76.45797,39.26117],[-76.45802,39.26144],[-76.45807,39.26169],[-76.45812,39.26193],[-76.45818,39.26216],[-76.45826,39.26244],[-76.45837,39.26278],[-76.45848,39.2631],[-76.4586,39.26342],[-76.45874,39.26373],[-76.45888,39.26404],[-76.45903,39.26436],[-76.4592,39.26466],[-76.45938,39.26498],[-76.45957,39.26528],[-76.45977,39.26557],[-76.45998,39.26587],[-76.4602,39.26616],[-76.46043,39.26644],[-76.46066,39.26672],[-76.46091,39.267],[-76.46117,39.26727],[-76.46143,39.26753],[-76.4617,39.2678],[-76.46196,39.26806],[-76.46276,39.26884],[-76.46312,39.2692],[-76.46344,39.26951],[-76.46727,39.27329],[-76.46804,39.27405]],[[-76.50451,39.23336],[-76.50359,39.23391],[-76.50307,39.23422],[-76.50226,39.23471],[-76.50167,39.23506],[-76.50111,39.2354],[-76.5007,39.23562],[-76.50028,39.23584],[-76.49954,39.2362],[-76.49922,39.23634],[-76.4989,39.23647],[-76.49851,39.23662],[-76.4981,39.23676],[-76.49768,39.23689],[-76.49725,39.23699],[-76.49672,39.23712],[-76.49623,39.23721],[-76.49572,39.2373],[-76.49529,39.23736],[-76.4948,39.23741],[-76.49235,39.23764]],[[-76.49235,39.23764],[-76.49052,39.23781],[-76.48144,39.2385],[-76.4809,39.23854],[-76.48044,39.23854],[-76.47998,39.23854],[-76.47955,39.23852],[-76.47929,39.2385]],[[-76.50459,39.23344],[-76.50495,39.23323],[-76.50536,39.23299],[-76.50574,39.23276],[-76.5069,39.2321]],[[-76.49233,39.23774],[-76.49482,39.23752],[-76.49531,39.23746],[-76.49575,39.2374],[-76.49625,39.23732],[-76.49676,39.23722],[-76.49729,39.2371],[-76.49771,39.23698],[-76.49816,39.23685],[-76.49857,39.23671],[-76.49896,39.23656],[-76.49928,39.23643],[-76.4996,39.23629],[-76.50035,39.23593],[-76.50077,39.23571],[-76.50117,39.23549],[-76.50173,39.23515],[-76.50233,39.2348],[-76.50316,39.23429],[-76.50367,39.23399],[-76.50459,39.23344]],[[-76.48425,39.32865],[-76.48406,39.32846]],[[-76.48406,39.32846],[-76.48397,39.32838]],[[-76.4838,39.32863],[-76.484,39.32881]],[[-76.484,39.32881],[-76.48423,39.32903]],[[-76.48423,39.32903],[-76.48645,39.3311]],[[-76.48645,39.3311],[-76.48682,39.33146]],[[-76.48761,39.33221],[-76.48783,39.33242]],[[-76.48803,39.3326],[-76.4881,39.33268]],[[-76.49064,39.3351],[-76.49075,39.3352]],[[-76.58759,39.20702],[-76.58805,39.20684],[-76.58855,39.20667],[-76.58899,39.20654],[-76.58952,39.20643],[-76.58998,39.20637],[-76.59039,39.20633]],[[-76.58778,39.20664],[-76.58678,39.20703],[-76.58667,39.20707],[-76.58634,39.2072],[-76.5859,39.20733],[-76.58546,39.20745],[-76.58504,39.20753],[-76.58463,39.2076],[-76.58419,39.20764],[-76.58393,39.20765],[-76.58374,39.20766],[-76.5833,39.20766],[-76.58273,39.20763],[-76.58215,39.20757],[-76.5817,39.20751],[-76.58161,39.2075],[-76.58089,39.20741]],[[-76.57337,39.20658],[-76.57396,39.20672],[-76.5746,39.20686],[-76.57524,39.20698],[-76.57575,39.20707],[-76.57636,39.20716]],[[-76.57347,39.20631],[-76.57308,39.20622]],[[-76.57308,39.20622],[-76.57229,39.20601],[-76.57172,39.20587],[-76.57118,39.20575],[-76.57059,39.20563]],[[-76.57297,39.20647],[-76.57337,39.20658]],[[-76.56984,39.20577],[-76.57047,39.20589]],[[-76.47368,39.23701],[-76.47346,39.23696],[-76.47323,39.23691]],[[-76.50134,39.30189],[-76.50292,39.29767]],[[-76.54324,39.20855],[-76.54362,39.20833],[-76.54453,39.20775]],[[-76.57047,39.20589],[-76.57111,39.20602],[-76.57164,39.20615],[-76.57221,39.20629],[-76.57297,39.20647]],[[-76.50797,39.23129],[-76.50749,39.23159]],[[-76.51226,39.22882],[-76.51335,39.22818]],[[-76.67147,39.24253],[-76.67028,39.24136],[-76.66988,39.24092],[-76.66958,39.24055],[-76.66935,39.24025],[-76.66911,39.23988],[-76.66887,39.23946],[-76.66867,39.23909],[-76.66851,39.23874],[-76.66833,39.2383],[-76.6682,39.23787],[-76.66811,39.23754],[-76.66801,39.23709]],[[-76.66013,39.22186],[-76.6589,39.21982]],[[-76.65654,39.21653],[-76.657,39.21708],[-76.65723,39.21744],[-76.65821,39.21905]],[[-76.6566,39.21628],[-76.65638,39.21605],[-76.65608,39.21575],[-76.65535,39.21503],[-76.65258,39.21237]],[[-76.60629,39.20676],[-76.60588,39.20675],[-76.60523,39.20672],[-76.6042,39.20667],[-76.6011,39.20652]],[[-76.6063,39.207],[-76.60689,39.20698],[-76.60764,39.20696],[-76.60838,39.20691],[-76.60905,39.20686],[-76.60976,39.20679],[-76.61067,39.2067],[-76.61207,39.20657]],[[-76.64414,39.20735],[-76.64363,39.20708]],[[-76.65224,39.21235],[-76.65238,39.21246],[-76.65456,39.21455],[-76.65517,39.21513],[-76.6557,39.21564]],[[-76.65821,39.21905],[-76.65829,39.21918]],[[-76.65847,39.21911],[-76.65836,39.21892]],[[-76.65829,39.21918],[-76.65837,39.21931]],[[-76.65858,39.21964],[-76.65868,39.2198]],[[-76.66157,39.2246],[-76.66217,39.22557],[-76.66248,39.22606],[-76.66286,39.22663],[-76.66345,39.2275]],[[-76.6684,39.23905],[-76.6689,39.23994],[-76.66916,39.24033],[-76.66921,39.24041]],[[-76.59078,39.20632],[-76.59118,39.20633],[-76.59173,39.20635],[-76.59304,39.20641]],[[-76.48648,39.33085],[-76.48425,39.32865]],[[-76.4866,39.33098],[-76.48648,39.33085]],[[-76.48698,39.33135],[-76.4866,39.33098]],[[-76.48818,39.33247],[-76.4881,39.3324]],[[-76.48783,39.33242],[-76.48803,39.3326]],[[-76.48395,39.23841],[-76.49054,39.2379],[-76.49233,39.23774]],[[-76.45515,39.24924],[-76.45523,39.24953],[-76.45534,39.24985],[-76.45546,39.25013],[-76.45566,39.2505]],[[-76.4856,39.28232],[-76.47869,39.28035]],[[-76.50327,39.29675],[-76.50335,39.29654]],[[-76.50133,39.30786],[-76.50122,39.30759],[-76.5011,39.30726],[-76.50099,39.3069],[-76.5009,39.30648],[-76.50083,39.30604],[-76.50078,39.3056],[-76.50076,39.30519],[-76.50075,39.30481],[-76.50076,39.30447],[-76.50079,39.30414],[-76.50082,39.30383]],[[-76.48216,39.32176],[-76.48134,39.32179],[-76.48065,39.32182],[-76.48039,39.32183],[-76.48015,39.32186],[-76.47986,39.32191],[-76.47958,39.32199],[-76.47932,39.32209],[-76.47911,39.32219],[-76.47891,39.32229],[-76.47875,39.32239],[-76.4786,39.3225],[-76.47845,39.32264],[-76.4783,39.32279],[-76.47817,39.32295],[-76.47805,39.32311]],[[-76.65836,39.21892],[-76.65741,39.21738],[-76.65718,39.21702],[-76.65689,39.21662],[-76.6566,39.21628]],[[-76.65868,39.2198],[-76.6604,39.22265]],[[-76.6589,39.21982],[-76.65876,39.2196],[-76.65875,39.21958]],[[-76.6624,39.2256],[-76.66235,39.22552],[-76.66185,39.22471],[-76.66179,39.2246]],[[-76.6645,39.22866],[-76.66362,39.22742],[-76.66304,39.22657],[-76.66267,39.22601],[-76.6624,39.2256]],[[-76.6674,39.23369],[-76.66719,39.23289]],[[-76.66748,39.23537],[-76.66764,39.23635],[-76.6677,39.23674]],[[-76.70733,39.26249],[-76.70663,39.26211]],[[-76.73084,39.28185],[-76.73107,39.28197]],[[-76.73889,39.28661],[-76.7392,39.2869],[-76.73954,39.28723],[-76.73981,39.28752],[-76.74004,39.2878],[-76.74032,39.28819],[-76.74059,39.28857],[-76.74078,39.28885],[-76.741,39.28923],[-76.74107,39.28936]],[[-76.74107,39.28936],[-76.74123,39.28966],[-76.74138,39.28996],[-76.74153,39.29031]],[[-76.4881,39.3324],[-76.48788,39.33219]],[[-76.4881,39.33268],[-76.48848,39.33304],[-76.49064,39.3351]],[[-76.56796,39.20521],[-76.5676,39.20517]],[[-76.6427,39.2069],[-76.64343,39.20729],[-76.64449,39.20788],[-76.64817,39.20989]],[[-76.64363,39.20708],[-76.64255,39.20648]],[[-76.64469,39.20767],[-76.64414,39.20735]],[[-76.6486,39.21014],[-76.64965,39.21073]],[[-76.70262,39.26028],[-76.70279,39.26037]],[[-76.6557,39.21564],[-76.65591,39.21584],[-76.65622,39.21615],[-76.65654,39.21653]],[[-76.6108,39.20655],[-76.61063,39.20656],[-76.61017,39.20661]],[[-76.61017,39.20661],[-76.60972,39.20665],[-76.60905,39.2067],[-76.60836,39.20674]],[[-76.73352,39.28331],[-76.73443,39.28381]],[[-76.73443,39.28381],[-76.73446,39.28382]],[[-76.51046,39.22984],[-76.50972,39.23029],[-76.50797,39.23129]],[[-76.51057,39.22977],[-76.51046,39.22984]],[[-76.45603,39.25046],[-76.456,39.25041],[-76.45579,39.25003]],[[-76.45963,39.2583],[-76.45933,39.25718],[-76.45918,39.25663],[-76.45915,39.25654]],[[-76.69506,39.25684],[-76.69389,39.25653]],[[-76.70954,39.26371],[-76.70855,39.26316]],[[-76.67866,39.24975],[-76.67925,39.25028],[-76.67994,39.25089],[-76.68105,39.25172]],[[-76.6753,39.24655],[-76.6756,39.24683]],[[-76.6637,39.22784],[-76.66443,39.22886]],[[-76.49075,39.3352],[-76.4917,39.33611]],[[-76.54569,39.20702],[-76.54817,39.20542],[-76.54863,39.20514],[-76.54903,39.20491]],[[-76.54547,39.20681],[-76.54489,39.20716]],[[-76.54425,39.20757],[-76.54339,39.20812],[-76.54302,39.20836]],[[-76.54453,39.20775],[-76.54512,39.20737]],[[-76.58083,39.20769],[-76.58166,39.20779]],[[-76.58012,39.2076],[-76.58083,39.20769]],[[-76.58017,39.20733],[-76.57641,39.20688],[-76.57579,39.2068]],[[-76.58089,39.20741],[-76.58017,39.20733]],[[-76.71105,39.26487],[-76.72081,39.27045],[-76.72124,39.2707]],[[-76.66801,39.23709],[-76.66798,39.23693],[-76.66785,39.2362]],[[-76.65031,39.21078],[-76.64988,39.21054]],[[-76.62911,39.20304],[-76.62783,39.20341]],[[-76.48278,39.32772],[-76.48289,39.32781],[-76.48372,39.32855]],[[-76.62872,39.20332],[-76.62972,39.20304],[-76.63032,39.20289],[-76.63071,39.20282],[-76.63103,39.20277]],[[-76.5676,39.20517],[-76.56742,39.20514],[-76.56672,39.20507],[-76.56514,39.20497]],[[-76.69105,39.25605],[-76.69138,39.25614],[-76.69221,39.25636]],[[-76.58305,39.20792],[-76.58332,39.20794],[-76.58379,39.20793],[-76.58422,39.20791],[-76.58469,39.20787],[-76.58514,39.2078],[-76.58558,39.20771],[-76.586,39.2076],[-76.58646,39.20745],[-76.5869,39.20729],[-76.58759,39.20702]],[[-76.64163,39.20631],[-76.64225,39.20665]],[[-76.58298,39.20791],[-76.58305,39.20792]],[[-76.58166,39.20779],[-76.58212,39.20784],[-76.58273,39.2079],[-76.58298,39.20791]],[[-76.45915,39.25654],[-76.459,39.25609],[-76.45882,39.25563],[-76.45863,39.25517],[-76.45851,39.25491],[-76.45839,39.25464],[-76.45818,39.25425],[-76.45797,39.25386],[-76.45785,39.25365],[-76.45773,39.25345],[-76.45751,39.25306],[-76.45727,39.25264],[-76.45666,39.25158]],[[-76.70855,39.26316],[-76.70853,39.26315],[-76.70783,39.26276],[-76.70733,39.26249]],[[-76.61447,39.20633],[-76.61802,39.20597],[-76.61863,39.2059]],[[-76.69743,39.25776],[-76.69779,39.25788],[-76.6983,39.25807],[-76.69892,39.25832],[-76.6994,39.25854],[-76.6999,39.2588],[-76.70037,39.25905],[-76.70262,39.26028]],[[-76.52679,39.21823],[-76.5298,39.2159]],[[-76.5298,39.2159],[-76.5337,39.21289],[-76.53409,39.21258],[-76.53464,39.21216],[-76.53499,39.21191],[-76.53528,39.21172],[-76.53561,39.21151],[-76.53595,39.21131],[-76.53629,39.21113],[-76.5366,39.21097],[-76.53693,39.21081],[-76.53728,39.21065],[-76.5377,39.21048],[-76.53813,39.21031],[-76.53858,39.21016],[-76.53898,39.21003],[-76.53954,39.20986]],[[-76.52672,39.21816],[-76.52071,39.22281],[-76.51991,39.22343],[-76.51922,39.22397],[-76.51872,39.22435],[-76.51826,39.22471],[-76.51784,39.22503],[-76.51741,39.22536],[-76.51686,39.22577],[-76.51636,39.22612],[-76.51586,39.22647]],[[-76.52973,39.21584],[-76.52672,39.21816]],[[-76.68119,39.25159],[-76.68001,39.25072],[-76.67907,39.24991],[-76.67828,39.24915],[-76.67597,39.24688]],[[-76.66564,39.23024],[-76.66562,39.23021],[-76.66459,39.22879]],[[-76.6756,39.24683],[-76.6766,39.24779]],[[-76.51259,39.22852],[-76.51229,39.22871]]]}},{"type":"Feature","properties":{"id":"C-I95","name":"I-95","kind":"corridor"},"geometry":{"type":"MultiLineString","coordinates":[[[-76.62294,39.2672],[-76.62249,39.26717],[-76.62197,39.26715],[-76.62134,39.26715],[-76.62032,39.26717],[-76.61956,39.26718]],[[-76.7718,39.19205],[-76.76955,39.19425],[-76.76874,39.19503],[-76.76839,39.19535],[-76.76792,39.19577],[-76.76736,39.19625],[-76.76673,39.19676]],[[-76.55966,39.26841],[-76.5567,39.27082]],[[-76.5545,39.27254],[-76.55365,39.27324],[-76.55341,39.27346],[-76.5531,39.27377],[-76.5528,39.2741],[-76.55258,39.27442],[-76.55239,39.2747],[-76.55222,39.27505],[-76.55206,39.27543],[-76.5519,39.27591],[-76.55176,39.27638],[-76.55164,39.27705],[-76.55152,39.27766],[-76.55141,39.2783],[-76.55132,39.27874],[-76.55121,39.2791],[-76.55112,39.27947],[-76.55082,39.28032],[-76.55066,39.28065],[-76.55051,39.28096],[-76.55032,39.28129],[-76.55012,39.28163],[-76.54993,39.28194],[-76.54977,39.28215]],[[-76.54977,39.28215],[-76.54951,39.28248],[-76.5493,39.28268],[-76.54911,39.28286],[-76.54881,39.28308],[-76.54855,39.28325],[-76.54825,39.28344],[-76.54798,39.28358],[-76.54764,39.28373],[-76.54722,39.28389],[-76.54689,39.28399],[-76.54653,39.28408]],[[-76.54653,39.28408],[-76.54619,39.28416],[-76.54584,39.28422],[-76.54546,39.28427],[-76.54502,39.28431],[-76.54453,39.28435]],[[-76.54049,39.28433],[-76.5392,39.28424]],[[-76.5392,39.28424],[-76.5384,39.28417],[-76.53802,39.28416],[-76.53763,39.28416],[-76.53727,39.28418],[-76.53695,39.2842],[-76.53664,39.28425]],[[-76.68659,39.24657],[-76.68729,39.2461],[-76.68944,39.24467]],[[-76.76638,39.19703],[-76.76572,39.19754],[-76.76488,39.19815],[-76.76425,39.19859],[-76.76356,39.19904],[-76.76299,39.19939],[-76.76233,39.19978],[-76.76178,39.20008],[-76.76053,39.20072],[-76.75949,39.20124]],[[-76.76605,39.19777],[-76.76701,39.19703],[-76.76761,39.19654],[-76.7682,39.19603],[-76.76865,39.19564],[-76.76902,39.1953],[-76.76986,39.1945],[-76.77115,39.1933]],[[-76.77115,39.1933],[-76.77272,39.19172]],[[-76.72386,39.22027],[-76.7209,39.22237],[-76.71944,39.2234],[-76.71902,39.22371],[-76.7186,39.22406],[-76.71828,39.22434]],[[-76.7186,39.22448],[-76.71891,39.22421],[-76.71926,39.22391],[-76.71967,39.2236],[-76.72113,39.22257],[-76.72572,39.21931],[-76.72677,39.21857]],[[-76.72677,39.21857],[-76.72801,39.21769]],[[-76.75712,39.20274],[-76.75963,39.20149],[-76.76068,39.20096]],[[-76.73491,39.21349],[-76.73193,39.21496],[-76.73135,39.21526],[-76.73076,39.21557],[-76.73027,39.21585],[-76.72977,39.21615],[-76.72918,39.21652],[-76.72875,39.21681],[-76.72821,39.21718],[-76.72386,39.22027]],[[-76.75949,39.20124],[-76.75693,39.20251],[-76.73491,39.21349]],[[-76.7057,39.23849],[-76.70638,39.23814],[-76.70685,39.23789],[-76.70731,39.23762],[-76.70776,39.23733],[-76.7083,39.23699],[-76.70872,39.23669],[-76.70914,39.23638],[-76.70964,39.23598]],[[-76.71364,39.23133],[-76.71599,39.22781],[-76.71659,39.22693],[-76.71682,39.22659]],[[-76.68005,39.24944],[-76.67979,39.2496],[-76.67957,39.24975],[-76.67937,39.2499]],[[-76.70964,39.23598],[-76.71072,39.23501]],[[-76.67891,39.25029],[-76.67863,39.25057],[-76.67836,39.25085],[-76.67812,39.25117],[-76.67791,39.25146],[-76.67767,39.25186],[-76.6775,39.25219],[-76.67732,39.25264],[-76.67647,39.25473],[-76.67594,39.25603]],[[-76.67491,39.25899],[-76.67601,39.25732]],[[-76.67872,39.25353],[-76.67901,39.25319]],[[-76.67901,39.25319],[-76.67979,39.2523]],[[-76.68049,39.25156],[-76.68092,39.25113]],[[-76.68092,39.25113],[-76.68123,39.25084]],[[-76.68222,39.24991],[-76.68255,39.24962]],[[-76.68255,39.24962],[-76.68297,39.24927],[-76.68346,39.24886],[-76.68406,39.24838],[-76.68461,39.24796]],[[-76.68461,39.24796],[-76.68495,39.24771]],[[-76.68495,39.24771],[-76.68542,39.24737],[-76.68595,39.247],[-76.68659,39.24657]],[[-76.6919,39.24299],[-76.69333,39.24203]],[[-76.69333,39.24203],[-76.69367,39.24181],[-76.694,39.24161]],[[-76.694,39.24161],[-76.69438,39.24138],[-76.69471,39.2412]],[[-76.69471,39.2412],[-76.69527,39.24092]],[[-76.6971,39.24023],[-76.69752,39.24012]],[[-76.69752,39.24012],[-76.69786,39.24003],[-76.69827,39.23994],[-76.69862,39.23988],[-76.69901,39.23981],[-76.69931,39.23977],[-76.69971,39.23973],[-76.70011,39.23969],[-76.70068,39.23965],[-76.70168,39.23961],[-76.70225,39.23957],[-76.70281,39.23949],[-76.70336,39.23938],[-76.7039,39.23924],[-76.70449,39.23902],[-76.70497,39.23883]],[[-76.70497,39.23883],[-76.7057,39.23849]],[[-76.71682,39.22659],[-76.71732,39.22594],[-76.71772,39.22545],[-76.71808,39.22504],[-76.7186,39.22448]],[[-76.67457,39.25889],[-76.67299,39.26139]],[[-76.67937,39.2499],[-76.67891,39.25029]],[[-76.6858,39.24656],[-76.68504,39.24695],[-76.68431,39.24731]],[[-76.69189,39.24264],[-76.69058,39.24351]],[[-76.69331,39.24168],[-76.69189,39.24264]],[[-76.69398,39.24127],[-76.69364,39.24147],[-76.69331,39.24168]],[[-76.69456,39.24094],[-76.69424,39.24112],[-76.69398,39.24127]],[[-76.69519,39.24064],[-76.69496,39.24074],[-76.69456,39.24094]],[[-76.69704,39.23997],[-76.69661,39.24009],[-76.69616,39.24024],[-76.69571,39.24042],[-76.69519,39.24064]],[[-76.69745,39.23985],[-76.69704,39.23997]],[[-76.70435,39.23878],[-76.70382,39.23897],[-76.70327,39.23912],[-76.70275,39.23923],[-76.70217,39.2393],[-76.70165,39.23934],[-76.70066,39.23939],[-76.70008,39.23942],[-76.69968,39.23945],[-76.69926,39.2395],[-76.69895,39.23954],[-76.69856,39.23961],[-76.69819,39.23968],[-76.69777,39.23977],[-76.69745,39.23985]],[[-76.70942,39.23575],[-76.70894,39.23615],[-76.70851,39.23647],[-76.7081,39.23677],[-76.70759,39.2371],[-76.70712,39.23739],[-76.70669,39.23764],[-76.70624,39.23789],[-76.70558,39.23823],[-76.70491,39.23854],[-76.70435,39.23878]],[[-76.71051,39.2348],[-76.70942,39.23575]],[[-76.71669,39.22619],[-76.7164,39.22662],[-76.71568,39.22769],[-76.71446,39.22953]],[[-76.5567,39.27082],[-76.5555,39.27173],[-76.5545,39.27254]],[[-76.53217,39.29272],[-76.53238,39.29196],[-76.5326,39.2912],[-76.53374,39.28693],[-76.53387,39.28659],[-76.534,39.28632]],[[-76.53283,39.28921],[-76.53211,39.29193]],[[-76.61784,39.26736],[-76.61834,39.2674],[-76.6189,39.26741]],[[-76.56243,39.26676],[-76.56269,39.26655]],[[-76.63808,39.27027],[-76.6393,39.27042]],[[-76.6189,39.26741],[-76.61946,39.26741],[-76.6199,39.26741],[-76.62109,39.26739]],[[-76.53157,39.30871],[-76.53145,39.30831],[-76.53138,39.30807]],[[-76.64673,39.27111],[-76.64746,39.27117]],[[-76.64952,39.27135],[-76.65143,39.27153],[-76.65188,39.27156],[-76.65241,39.27158]],[[-76.53083,39.30564],[-76.5307,39.30455]],[[-76.66003,39.26883],[-76.65732,39.27001]],[[-76.6393,39.27042],[-76.64244,39.27073],[-76.64554,39.27101]],[[-76.63125,39.26911],[-76.63177,39.26922],[-76.63256,39.26938],[-76.63349,39.26956],[-76.63404,39.26965],[-76.63477,39.26979],[-76.63573,39.26994],[-76.63643,39.27005],[-76.6371,39.27014],[-76.63808,39.27027]],[[-76.62927,39.26867],[-76.62987,39.26881],[-76.63078,39.26901],[-76.63125,39.26911]],[[-76.62109,39.26739],[-76.62167,39.26738],[-76.62221,39.26738],[-76.62284,39.26741],[-76.62329,39.26744],[-76.6238,39.26748],[-76.62423,39.26753],[-76.62469,39.26759],[-76.62516,39.26767],[-76.62576,39.26779],[-76.62635,39.26792],[-76.62694,39.26806],[-76.62804,39.26835],[-76.62864,39.2685],[-76.62927,39.26867]],[[-76.65367,39.27129],[-76.65317,39.27135],[-76.65282,39.27137],[-76.65231,39.27139]],[[-76.64913,39.27115],[-76.64676,39.27093]],[[-76.64676,39.27093],[-76.64383,39.27064]],[[-76.64383,39.27064],[-76.64259,39.27054],[-76.6411,39.27041]],[[-76.6411,39.27041],[-76.63998,39.27029],[-76.63847,39.27012]],[[-76.61383,39.26694],[-76.61442,39.26697],[-76.61491,39.267],[-76.61539,39.26704],[-76.61614,39.26714],[-76.61667,39.26722],[-76.6172,39.2673],[-76.61784,39.26736]],[[-76.59784,39.26645],[-76.6014,39.26694],[-76.60291,39.26714],[-76.60377,39.26723],[-76.60447,39.26726],[-76.60513,39.26727],[-76.6058,39.26726],[-76.61267,39.26697],[-76.61326,39.26695],[-76.61383,39.26694]],[[-76.5897,39.26442],[-76.59127,39.2649],[-76.59287,39.26535],[-76.59379,39.26558],[-76.59481,39.26583],[-76.59588,39.26606],[-76.59672,39.26622],[-76.59784,39.26645]],[[-76.56107,39.2678],[-76.56243,39.26676]],[[-76.55987,39.26858],[-76.5601,39.26843]],[[-76.55455,39.27281],[-76.55558,39.272],[-76.55651,39.27127]],[[-76.54996,39.28229],[-76.55013,39.28205],[-76.55035,39.28171],[-76.55052,39.2814],[-76.55062,39.2812]],[[-76.54308,39.28464],[-76.54395,39.28461],[-76.54454,39.28458],[-76.54535,39.2845],[-76.54583,39.28444]],[[-76.56652,39.26367],[-76.56594,39.26398],[-76.56535,39.2643],[-76.56512,39.26443],[-76.5648,39.2646],[-76.56443,39.26482],[-76.56398,39.26509],[-76.56362,39.2653],[-76.56325,39.26555],[-76.56279,39.26587]],[[-76.76673,39.19676],[-76.76638,39.19703]],[[-76.77272,39.19172],[-76.77299,39.19144]],[[-76.77299,39.19144],[-76.77392,39.19056],[-76.77487,39.18968],[-76.77562,39.18903],[-76.777,39.18785],[-76.78252,39.18321]],[[-76.77263,39.19124],[-76.77235,39.19153]],[[-76.77235,39.19153],[-76.7718,39.19205]],[[-76.59789,39.26623],[-76.59676,39.26607],[-76.59593,39.26592],[-76.59487,39.2657],[-76.59384,39.26546],[-76.59293,39.26522],[-76.59133,39.26477],[-76.58976,39.26429]],[[-76.59789,39.26623],[-76.59679,39.266],[-76.59597,39.26582],[-76.59491,39.2656],[-76.59389,39.26534],[-76.59298,39.2651]],[[-76.76068,39.20096],[-76.76194,39.20034],[-76.76253,39.20004],[-76.76321,39.19967],[-76.76381,39.19932],[-76.76446,39.19889],[-76.76513,39.19844],[-76.76605,39.19777]],[[-76.69058,39.24351],[-76.68837,39.24501],[-76.68794,39.24528],[-76.68748,39.24557],[-76.68703,39.24584],[-76.68648,39.24617],[-76.68629,39.24628]],[[-76.69061,39.24386],[-76.6919,39.24299]],[[-76.63321,39.26927],[-76.63131,39.26891],[-76.63029,39.26869],[-76.62936,39.26847],[-76.6282,39.26819],[-76.62656,39.26776],[-76.62592,39.26761],[-76.62529,39.26749],[-76.6248,39.26741],[-76.62426,39.26733],[-76.6238,39.26728],[-76.62339,39.26724],[-76.62294,39.2672]],[[-76.63847,39.27012],[-76.63795,39.27005],[-76.63723,39.26994],[-76.63586,39.26973],[-76.63529,39.26964],[-76.6347,39.26954],[-76.63407,39.26943],[-76.63321,39.26927]],[[-76.71828,39.22434],[-76.71778,39.22488],[-76.7174,39.22532],[-76.71702,39.22578],[-76.71669,39.22619]],[[-76.71072,39.23501],[-76.71139,39.23435],[-76.71173,39.23396],[-76.71213,39.2335],[-76.71249,39.23303],[-76.71284,39.23254],[-76.71364,39.23133]],[[-76.67594,39.25603],[-76.67564,39.25675]],[[-76.66035,39.26869],[-76.66003,39.26883]],[[-76.65743,39.27017],[-76.66019,39.26895]],[[-76.6732,39.26167],[-76.67394,39.26047],[-76.67491,39.25899]],[[-76.65732,39.27001],[-76.65567,39.27073],[-76.65537,39.27085],[-76.65509,39.27095],[-76.65476,39.27106],[-76.65444,39.27115],[-76.65405,39.27123],[-76.65367,39.27129]],[[-76.66019,39.26895],[-76.66051,39.26881]],[[-76.66051,39.26881],[-76.66396,39.2673],[-76.66466,39.267],[-76.66647,39.26621],[-76.66944,39.2649],[-76.6699,39.26469],[-76.67027,39.26449],[-76.67072,39.26422],[-76.67115,39.26392],[-76.67157,39.2636],[-76.67193,39.26326],[-76.67227,39.26291],[-76.6725,39.26263],[-76.67278,39.26225],[-76.6732,39.26167]],[[-76.65231,39.27139],[-76.65193,39.27138],[-76.65142,39.27135],[-76.64913,39.27115]],[[-76.65576,39.27091],[-76.65743,39.27017]],[[-76.71446,39.22953],[-76.71255,39.23238],[-76.71221,39.23286],[-76.71185,39.23332],[-76.71145,39.2338],[-76.71112,39.23416],[-76.71051,39.2348]],[[-76.68124,39.24882],[-76.68077,39.24906],[-76.68059,39.24915]],[[-76.68431,39.24731],[-76.68387,39.24753]],[[-76.68387,39.24753],[-76.68124,39.24882]],[[-76.56265,39.26591],[-76.56224,39.26629]],[[-76.53142,39.29457],[-76.53102,39.29615],[-76.53088,39.2967],[-76.53071,39.29753],[-76.53062,39.29807]],[[-76.53062,39.29807],[-76.53043,39.2997],[-76.53039,39.30021],[-76.53035,39.30092],[-76.53033,39.30186],[-76.53034,39.30255],[-76.53036,39.30324]],[[-76.55651,39.27127],[-76.55987,39.26858]],[[-76.53211,39.29193],[-76.53191,39.29271]],[[-76.53666,39.28448],[-76.53699,39.28443],[-76.5373,39.2844],[-76.53763,39.28438],[-76.538,39.28439],[-76.53841,39.2844]],[[-76.54051,39.28456],[-76.54089,39.28458]],[[-76.54087,39.28435],[-76.54049,39.28433]],[[-76.54089,39.28458],[-76.54172,39.28462],[-76.54246,39.28464],[-76.54308,39.28464]],[[-76.53174,39.29442],[-76.53217,39.29272]],[[-76.53036,39.30324],[-76.53039,39.30371],[-76.53043,39.30414],[-76.53048,39.30466]],[[-76.5307,39.30455],[-76.53066,39.30413],[-76.53063,39.30369],[-76.53059,39.30323]],[[-76.53059,39.30323],[-76.53057,39.30254],[-76.53056,39.30186],[-76.53059,39.30092],[-76.53062,39.30022],[-76.53067,39.29971],[-76.53082,39.29856]],[[-76.53048,39.30466],[-76.53057,39.30534]],[[-76.53082,39.29856],[-76.5309,39.29808],[-76.53098,39.29758],[-76.53114,39.29672],[-76.53128,39.29616],[-76.53174,39.29442]],[[-76.58965,39.26452],[-76.59123,39.26499],[-76.59283,39.26544]],[[-76.56306,39.26626],[-76.56319,39.26615]],[[-76.59283,39.26544],[-76.59375,39.26568],[-76.59478,39.26592],[-76.59584,39.26614],[-76.59669,39.2663],[-76.59784,39.26645]],[[-76.59298,39.2651],[-76.59138,39.26466],[-76.5898,39.26419]],[[-76.53967,39.2845],[-76.54051,39.28456]],[[-76.534,39.28632],[-76.53413,39.28608],[-76.53429,39.28585],[-76.53444,39.28568],[-76.53463,39.28549],[-76.53486,39.28528],[-76.53511,39.28511],[-76.5354,39.28493],[-76.5357,39.28479],[-76.536,39.28467],[-76.53636,39.28455],[-76.53666,39.28448]],[[-76.61384,39.26671],[-76.61326,39.26672],[-76.6127,39.26674],[-76.61083,39.26682],[-76.60871,39.26692],[-76.60757,39.26698],[-76.60629,39.26704],[-76.60558,39.26707],[-76.60503,39.26708],[-76.60446,39.26707],[-76.6038,39.26703],[-76.60331,39.26699],[-76.60276,39.26692],[-76.60195,39.26681],[-76.6014,39.26673],[-76.60053,39.2666],[-76.59789,39.26623]],[[-76.56645,39.26358],[-76.56587,39.26387],[-76.56524,39.2642],[-76.56502,39.26432],[-76.5646,39.26454]],[[-76.67564,39.25675],[-76.67544,39.2572]],[[-76.67544,39.2572],[-76.67526,39.25758]],[[-76.78961,39.17766],[-76.78514,39.18028]],[[-76.78514,39.18028],[-76.78153,39.18238],[-76.78108,39.18266],[-76.78056,39.18301],[-76.78014,39.18331],[-76.77978,39.1836],[-76.77939,39.18393],[-76.77903,39.18428],[-76.77866,39.18465],[-76.77829,39.18507],[-76.77685,39.18688],[-76.77645,39.18736],[-76.77605,39.18781],[-76.77565,39.18826],[-76.77523,39.1887],[-76.7748,39.18913],[-76.77449,39.18944],[-76.77357,39.19034],[-76.77263,39.19124]],[[-76.54453,39.28435],[-76.54394,39.28439],[-76.54373,39.28439],[-76.54306,39.28441],[-76.54247,39.28442],[-76.54174,39.2844],[-76.54087,39.28435]],[[-76.61875,39.26717],[-76.61821,39.26715],[-76.61778,39.26713],[-76.61735,39.26709],[-76.61693,39.26703],[-76.61652,39.26696],[-76.61583,39.26686],[-76.61541,39.26681],[-76.61494,39.26677],[-76.61444,39.26673],[-76.61384,39.26671]],[[-76.67979,39.2523],[-76.68,39.25208],[-76.68049,39.25156]],[[-76.55278,39.27452],[-76.55313,39.27407],[-76.55329,39.27389],[-76.55354,39.27362],[-76.55399,39.27325],[-76.55455,39.27281]],[[-76.53841,39.2844],[-76.53967,39.2845]],[[-76.69527,39.24092],[-76.69545,39.24083],[-76.69583,39.24068],[-76.69628,39.24051],[-76.69672,39.24035],[-76.6971,39.24023]],[[-76.67628,39.25689],[-76.677,39.25581],[-76.67733,39.25533],[-76.67762,39.25494],[-76.67797,39.25446],[-76.67835,39.25397],[-76.67872,39.25353]],[[-76.67299,39.26139],[-76.6725,39.26217],[-76.67226,39.2625],[-76.67205,39.26276],[-76.6717,39.26313],[-76.67137,39.26343],[-76.67097,39.26375],[-76.67055,39.26404],[-76.67011,39.2643],[-76.66976,39.26448],[-76.66929,39.2647],[-76.66632,39.26601]],[[-76.66632,39.26601],[-76.66446,39.26684],[-76.66242,39.26776],[-76.66035,39.26869]],[[-76.61956,39.26718],[-76.61926,39.26718],[-76.61875,39.26717]],[[-76.65241,39.27158],[-76.65283,39.27157],[-76.65322,39.27154],[-76.65372,39.27149],[-76.6541,39.27142],[-76.65451,39.27133],[-76.65483,39.27124],[-76.65516,39.27114],[-76.65546,39.27103],[-76.65576,39.27091]],[[-76.56342,39.26574],[-76.56415,39.26523],[-76.5646,39.26494],[-76.56495,39.26471],[-76.56523,39.26455],[-76.56551,39.26439],[-76.56589,39.26417],[-76.56639,39.2639]],[[-76.56291,39.26611],[-76.56342,39.26574]],[[-76.56224,39.26629],[-76.56172,39.26669]],[[-76.54684,39.28423],[-76.54726,39.2841],[-76.54769,39.28393],[-76.54816,39.28372],[-76.5484,39.28359],[-76.54869,39.28342],[-76.54898,39.28322],[-76.5493,39.28298],[-76.54949,39.28281],[-76.5497,39.2826],[-76.54996,39.28229]],[[-76.53511,39.28483],[-76.53494,39.28493],[-76.53466,39.28513],[-76.53443,39.28532],[-76.53423,39.28552],[-76.53404,39.28573],[-76.53388,39.28597],[-76.53373,39.28624],[-76.5336,39.28651],[-76.53346,39.28687],[-76.53283,39.28921]],[[-76.5646,39.26454],[-76.56363,39.2651],[-76.56296,39.26564]],[[-76.53664,39.28425],[-76.53628,39.28434],[-76.53594,39.28444],[-76.53557,39.28459],[-76.53526,39.28474],[-76.53511,39.28483]],[[-76.53161,39.29382],[-76.53142,39.29457]],[[-76.56279,39.26587],[-76.56224,39.26629]],[[-76.56172,39.26669],[-76.5608,39.26749],[-76.56027,39.26792],[-76.55966,39.26841]],[[-76.56236,39.26655],[-76.56291,39.26611]],[[-76.56269,39.26655],[-76.56306,39.26626]],[[-76.67601,39.25732],[-76.67628,39.25689]],[[-76.64554,39.27101],[-76.64673,39.27111]],[[-76.68944,39.24467],[-76.69061,39.24386]],[[-76.68123,39.25084],[-76.68149,39.25059],[-76.68222,39.24991]],[[-76.53191,39.29271],[-76.53161,39.29382]],[[-76.68629,39.24628],[-76.6858,39.24656]],[[-76.78252,39.18321],[-76.78311,39.18272]],[[-76.68059,39.24915],[-76.68041,39.24924],[-76.68005,39.24944]],[[-76.72801,39.21769],[-76.72843,39.21739],[-76.72895,39.21703],[-76.7294,39.21673],[-76.72995,39.21638],[-76.73043,39.2161],[-76.73094,39.21581],[-76.7315,39.2155],[-76.73209,39.2152],[-76.75712,39.20274]],[[-76.67526,39.25758],[-76.67522,39.25767],[-76.6749,39.25829],[-76.67474,39.25859],[-76.67457,39.25889]],[[-76.56018,39.2684],[-76.56041,39.26825]],[[-76.56041,39.26825],[-76.56061,39.26811]],[[-76.56061,39.26811],[-76.56093,39.2679]],[[-76.56093,39.2679],[-76.56107,39.2678]],[[-76.53138,39.30807],[-76.5313,39.30779],[-76.53116,39.30726],[-76.53106,39.30685],[-76.53096,39.30639],[-76.53083,39.30564]],[[-76.55062,39.2812],[-76.55071,39.28104],[-76.55086,39.28074],[-76.55103,39.28037],[-76.55118,39.28001],[-76.55134,39.27956],[-76.55146,39.27911],[-76.55155,39.27872],[-76.55164,39.27828],[-76.55187,39.27704],[-76.55202,39.27637],[-76.55208,39.27612]],[[-76.55208,39.27612],[-76.55212,39.27599],[-76.55229,39.27548],[-76.55243,39.27516],[-76.55258,39.27487],[-76.55278,39.27452]],[[-76.64844,39.27125],[-76.64952,39.27135]],[[-76.64746,39.27117],[-76.64794,39.27121],[-76.64844,39.27125]],[[-76.5638,39.26569],[-76.56397,39.26556],[-76.56428,39.26534],[-76.56469,39.26505],[-76.56505,39.26481],[-76.56531,39.26464],[-76.56555,39.26449],[-76.56597,39.26426],[-76.56647,39.264]],[[-76.56339,39.266],[-76.5638,39.26569]],[[-76.56319,39.26615],[-76.56339,39.266]],[[-76.54583,39.28444],[-76.5463,39.28436],[-76.54684,39.28423]],[[-76.5601,39.26843],[-76.56036,39.26822],[-76.56077,39.26788],[-76.56106,39.26762],[-76.56177,39.26702],[-76.56236,39.26655]],[[-76.5601,39.26843],[-76.56018,39.2684]],[[-76.56296,39.26564],[-76.56265,39.26591]]]}},{"type":"Feature","properties":{"id":"C-I895","name":"I-895","kind":"corridor"},"geometry":{"type":"MultiLineString","coordinates":[[[-76.72386,39.22027],[-76.72261,39.22106],[-76.7222,39.22128],[-76.72187,39.22148],[-76.7215,39.22171],[-76.72137,39.22179],[-76.7212,39.22187],[-76.721,39.22196],[-76.72078,39.22204],[-76.72053,39.22211],[-76.72021,39.22218],[-76.71983,39.22222],[-76.71951,39.22223],[-76.71923,39.22223],[-76.71889,39.2222],[-76.71838,39.22208],[-76.71822,39.22202],[-76.71805,39.22196],[-76.71787,39.22188],[-76.71532,39.22049]],[[-76.71418,39.21986],[-76.71385,39.21969],[-76.71362,39.21956],[-76.71327,39.21941],[-76.71298,39.21928]],[[-76.72174,39.22256],[-76.72196,39.22246],[-76.72223,39.22231],[-76.72243,39.22216],[-76.72264,39.22199],[-76.72292,39.22176],[-76.72352,39.22122],[-76.72392,39.22091],[-76.7246,39.22037],[-76.7252,39.21988],[-76.72677,39.21857]],[[-76.71394,39.21999],[-76.71515,39.22066]],[[-76.7197,39.2228],[-76.71998,39.22282],[-76.72042,39.22282],[-76.72071,39.2228],[-76.72114,39.22274],[-76.72145,39.22264],[-76.72174,39.22256]],[[-76.71116,39.21882],[-76.71157,39.21895],[-76.71199,39.2191],[-76.71227,39.2192],[-76.71256,39.21931],[-76.71295,39.21947],[-76.71336,39.21968],[-76.71359,39.2198],[-76.71394,39.21999]],[[-76.64914,39.23215],[-76.65596,39.2334]],[[-76.70145,39.21826],[-76.70096,39.21832],[-76.70021,39.21847],[-76.69958,39.21863],[-76.69895,39.21886],[-76.69844,39.21905],[-76.69796,39.21928],[-76.69735,39.21961],[-76.6962,39.22026]],[[-76.63571,39.22952],[-76.63378,39.22916]],[[-76.67112,39.23126],[-76.67081,39.23146]],[[-76.68365,39.22366],[-76.68013,39.22554]],[[-76.68392,39.22353],[-76.68365,39.22366]],[[-76.69038,39.2223],[-76.68637,39.22286],[-76.68604,39.22292],[-76.68565,39.223],[-76.68523,39.22309],[-76.68476,39.22323],[-76.68425,39.22341],[-76.68392,39.22353]],[[-76.69116,39.2222],[-76.69038,39.2223]],[[-76.69331,39.22172],[-76.69286,39.22188],[-76.6925,39.22197],[-76.69214,39.22205],[-76.69178,39.22212],[-76.69116,39.2222]],[[-76.694,39.22146],[-76.69331,39.22172]],[[-76.69586,39.22045],[-76.69468,39.22116],[-76.69433,39.22133],[-76.694,39.22146]],[[-76.6962,39.22026],[-76.69586,39.22045]],[[-76.705,39.21817],[-76.70435,39.21813],[-76.70398,39.21813],[-76.70324,39.21815],[-76.70234,39.21818],[-76.70145,39.21826]],[[-76.63378,39.22916],[-76.63058,39.22857],[-76.62991,39.22845],[-76.62931,39.22836],[-76.62871,39.2283],[-76.62819,39.2283],[-76.62746,39.22835],[-76.62692,39.22842],[-76.62638,39.22853],[-76.62592,39.22865],[-76.62545,39.22882]],[[-76.63621,39.22961],[-76.63571,39.22952]],[[-76.64139,39.23052],[-76.6396,39.23019],[-76.63808,39.22994],[-76.63621,39.22961]],[[-76.64192,39.23061],[-76.64139,39.23052]],[[-76.64525,39.23121],[-76.64433,39.23104]],[[-76.66141,39.23391],[-76.6608,39.23389],[-76.66024,39.23384],[-76.65957,39.23378],[-76.6585,39.23362],[-76.65603,39.23317]],[[-76.66201,39.2339],[-76.66141,39.23391]],[[-76.66678,39.23316],[-76.66611,39.23334]],[[-76.66746,39.23295],[-76.66678,39.23316]],[[-76.70483,39.21826],[-76.70721,39.21834]],[[-76.70269,39.2183],[-76.70313,39.21827]],[[-76.69944,39.21894],[-76.69987,39.2188],[-76.70032,39.21868],[-76.70076,39.21858],[-76.70118,39.2185],[-76.70159,39.21843],[-76.70198,39.21838],[-76.70269,39.2183]],[[-76.69638,39.22045],[-76.6976,39.21974],[-76.6982,39.21944],[-76.69893,39.21912],[-76.69944,39.21894]],[[-76.69601,39.22066],[-76.69638,39.22045]],[[-76.69405,39.22172],[-76.69472,39.22139],[-76.69601,39.22066]],[[-76.69341,39.22193],[-76.69405,39.22172]],[[-76.69131,39.2224],[-76.69177,39.22234],[-76.69225,39.22225],[-76.6926,39.22218],[-76.69296,39.22208],[-76.69341,39.22193]],[[-76.69047,39.22252],[-76.69131,39.2224]],[[-76.68403,39.22374],[-76.68448,39.22357],[-76.68481,39.22346],[-76.68516,39.22334],[-76.68553,39.22325],[-76.68598,39.22315],[-76.68665,39.22305],[-76.69047,39.22252]],[[-76.68374,39.22386],[-76.68403,39.22374]],[[-76.67131,39.23143],[-76.67183,39.2311],[-76.67494,39.22872],[-76.67541,39.22839],[-76.67584,39.22811],[-76.68029,39.22571]],[[-76.671,39.23162],[-76.67131,39.23143]],[[-76.66752,39.23317],[-76.66862,39.23281],[-76.66942,39.23245],[-76.67019,39.23207],[-76.671,39.23162]],[[-76.66684,39.23337],[-76.66752,39.23317]],[[-76.66313,39.23404],[-76.66392,39.23396],[-76.66455,39.2339],[-76.66513,39.2338],[-76.6658,39.23366],[-76.66684,39.23337]],[[-76.66134,39.23409],[-76.66182,39.2341]],[[-76.64195,39.23084],[-76.64427,39.23125]],[[-76.63611,39.2297],[-76.63864,39.23021],[-76.64003,39.23048],[-76.6414,39.23074]],[[-76.63563,39.22961],[-76.63611,39.2297]],[[-76.63375,39.22925],[-76.63563,39.22961]],[[-76.5534,39.28129],[-76.55338,39.28078]],[[-76.59268,39.24104],[-76.59328,39.24102]],[[-76.55334,39.27839],[-76.55333,39.27815],[-76.55331,39.27777]],[[-76.55324,39.28058],[-76.55325,39.28079]],[[-76.54956,39.29808],[-76.54984,39.29772],[-76.55018,39.29726],[-76.55035,39.29704],[-76.55093,39.29629]],[[-76.55463,39.27209],[-76.55405,39.27292],[-76.55378,39.27336],[-76.55358,39.27377]],[[-76.55384,39.29079],[-76.55383,39.29123],[-76.55378,39.29154],[-76.55376,39.29163]],[[-76.58715,39.24101],[-76.58638,39.24102]],[[-76.61107,39.24004],[-76.61159,39.23998],[-76.61192,39.23993],[-76.61219,39.23988],[-76.61241,39.23984],[-76.61271,39.23978]],[[-76.60995,39.24018],[-76.61039,39.24013]],[[-76.55321,39.27815],[-76.55324,39.27942],[-76.55324,39.27992],[-76.55325,39.28031],[-76.55324,39.28058]],[[-76.56056,39.26634],[-76.55959,39.26724],[-76.55865,39.2681],[-76.55781,39.26886],[-76.557,39.26961],[-76.55638,39.27019],[-76.55538,39.27123],[-76.55502,39.27165],[-76.55463,39.27209]],[[-76.61355,39.23955],[-76.61392,39.23943],[-76.61456,39.23919],[-76.61513,39.23891],[-76.61561,39.23864],[-76.61609,39.23835],[-76.61665,39.23794],[-76.61716,39.23749],[-76.61743,39.23723],[-76.61775,39.23687],[-76.61969,39.23457]],[[-76.61271,39.23978],[-76.6131,39.23968],[-76.61355,39.23955]],[[-76.60846,39.24036],[-76.60863,39.24034]],[[-76.60398,39.24083],[-76.60459,39.24079],[-76.60518,39.24074],[-76.60577,39.24068],[-76.60648,39.2406],[-76.60721,39.24051],[-76.60846,39.24036]],[[-76.59996,39.24092],[-76.60263,39.24088],[-76.60333,39.24086],[-76.60398,39.24083]],[[-76.56105,39.26604],[-76.56157,39.26561],[-76.56211,39.26521],[-76.56229,39.26508]],[[-76.55369,39.2738],[-76.55388,39.27338],[-76.55415,39.27295],[-76.55478,39.27211],[-76.55514,39.27169],[-76.55549,39.27129],[-76.55646,39.27026],[-76.55709,39.26966],[-76.55789,39.26892],[-76.55798,39.26883]],[[-76.55358,39.27377],[-76.55345,39.27407],[-76.55337,39.2743],[-76.55334,39.2744],[-76.55328,39.27462],[-76.55325,39.27475],[-76.55323,39.27486],[-76.55321,39.27496],[-76.55319,39.27508],[-76.55318,39.27519],[-76.55317,39.2753],[-76.55316,39.27541],[-76.55316,39.27563],[-76.55316,39.27574],[-76.55316,39.27607],[-76.55317,39.2764],[-76.55318,39.27684],[-76.55318,39.27706],[-76.55319,39.27727],[-76.55319,39.27737]],[[-76.55328,39.2813],[-76.5533,39.28163],[-76.55331,39.28207],[-76.55333,39.28251]],[[-76.55333,39.28251],[-76.55336,39.28301]],[[-76.55336,39.28301],[-76.55338,39.28331],[-76.5534,39.28367],[-76.55343,39.28411],[-76.55343,39.28423],[-76.55346,39.28467],[-76.5535,39.28521],[-76.55353,39.28573],[-76.55356,39.28622],[-76.55361,39.28703],[-76.55365,39.28754],[-76.5537,39.28831],[-76.55371,39.28856],[-76.55373,39.28893],[-76.55374,39.28911]],[[-76.55376,39.29163],[-76.55373,39.29179],[-76.55369,39.29198],[-76.55362,39.29217]],[[-76.55162,39.29515],[-76.55143,39.29543],[-76.55118,39.29574]],[[-76.55118,39.29574],[-76.55071,39.29631]],[[-76.55071,39.29631],[-76.55018,39.29703],[-76.5497,39.29767],[-76.54915,39.29841],[-76.54852,39.29924]],[[-76.54823,39.29958],[-76.54809,39.29978]],[[-76.54771,39.30026],[-76.54748,39.30055]],[[-76.57864,39.24325],[-76.57871,39.24317],[-76.57886,39.24298],[-76.57905,39.24279],[-76.57939,39.24246]],[[-76.57675,39.24606],[-76.5773,39.24526],[-76.57749,39.24498],[-76.57808,39.24409],[-76.57814,39.244],[-76.5785,39.24346],[-76.57864,39.24325]],[[-76.5535,39.28352],[-76.55347,39.28299]],[[-76.55375,39.2874],[-76.55368,39.2864],[-76.5536,39.28524],[-76.55353,39.2841],[-76.5535,39.28352]],[[-76.55389,39.29163],[-76.55393,39.29135],[-76.55394,39.29121],[-76.55395,39.29105],[-76.55396,39.29075],[-76.55394,39.29032],[-76.55388,39.28935],[-76.55375,39.2874]],[[-76.55215,39.29469],[-76.55282,39.29378],[-76.5531,39.2934],[-76.55327,39.29316],[-76.55345,39.29286],[-76.55357,39.29261],[-76.55368,39.29235],[-76.55375,39.29216]],[[-76.55093,39.29629],[-76.55215,39.29469]],[[-76.61254,39.23973],[-76.61209,39.23982],[-76.61165,39.23989],[-76.61084,39.23999]],[[-76.61084,39.23999],[-76.61,39.24009]],[[-76.61,39.24009],[-76.60884,39.24023]],[[-76.60884,39.24023],[-76.60851,39.24027]],[[-76.61969,39.23457],[-76.61997,39.23418],[-76.62066,39.23337],[-76.6209,39.23305],[-76.62199,39.23181],[-76.62265,39.23094],[-76.62324,39.2303],[-76.62371,39.22989],[-76.62436,39.22945],[-76.62496,39.22915],[-76.62551,39.22893]],[[-76.56334,39.26422],[-76.56223,39.26502]],[[-76.56527,39.26279],[-76.56491,39.26311]],[[-76.70721,39.21834],[-76.70765,39.21836],[-76.70828,39.21839],[-76.70879,39.21841]],[[-76.70736,39.21826],[-76.705,39.21817]],[[-76.7112,39.21872],[-76.71068,39.21859],[-76.71026,39.21851],[-76.70967,39.21842],[-76.70922,39.21836],[-76.70875,39.21832],[-76.70801,39.21828],[-76.70736,39.21826]],[[-76.67081,39.23146],[-76.67013,39.23183],[-76.6694,39.23221],[-76.66841,39.23263],[-76.66746,39.23295]],[[-76.66182,39.2341],[-76.66313,39.23404]],[[-76.62545,39.22882],[-76.62521,39.22892],[-76.62497,39.22901],[-76.62442,39.22932],[-76.62406,39.22952],[-76.62369,39.22978],[-76.62338,39.23004],[-76.62308,39.2303],[-76.62288,39.23053],[-76.62261,39.23081],[-76.62239,39.23108],[-76.62202,39.23155],[-76.62162,39.23204]],[[-76.60851,39.24027],[-76.60684,39.24047]],[[-76.62551,39.22893],[-76.62603,39.22876],[-76.62655,39.22863],[-76.62701,39.22852],[-76.62759,39.22844],[-76.62817,39.22842],[-76.6286,39.22841],[-76.62886,39.22842],[-76.62918,39.22845],[-76.62956,39.2285],[-76.63012,39.22858],[-76.63059,39.22866],[-76.63152,39.22883],[-76.63375,39.22925]],[[-76.6414,39.23074],[-76.64195,39.23084]],[[-76.56524,39.26297],[-76.56536,39.26285],[-76.56556,39.26266]],[[-76.55331,39.27777],[-76.5533,39.27737]],[[-76.5533,39.27737],[-76.5533,39.2773],[-76.5533,39.2772],[-76.55329,39.27698],[-76.55329,39.27664],[-76.55328,39.27631],[-76.55327,39.27607],[-76.55327,39.27573],[-76.55327,39.2756],[-76.55327,39.27538],[-76.55329,39.27516],[-76.5533,39.27504],[-76.55334,39.27482],[-76.55339,39.2746],[-76.55345,39.27437],[-76.55355,39.2741],[-76.55362,39.27395],[-76.55369,39.2738]],[[-76.55319,39.27737],[-76.5532,39.27778]],[[-76.5532,39.27778],[-76.55321,39.27815]],[[-76.55336,39.28004],[-76.55334,39.27839]],[[-76.55338,39.28078],[-76.55336,39.28004]],[[-76.55347,39.28299],[-76.55344,39.28249]],[[-76.55344,39.28249],[-76.5534,39.28129]],[[-76.55375,39.29216],[-76.55378,39.29207],[-76.55382,39.29193],[-76.55383,39.29185],[-76.55389,39.29163]],[[-76.55362,39.29217],[-76.5536,39.29225],[-76.55341,39.29266],[-76.55335,39.2928],[-76.55312,39.29319],[-76.55289,39.29354],[-76.5526,39.29393],[-76.55205,39.29462],[-76.55162,39.29515]],[[-76.54852,39.29924],[-76.54823,39.29958]],[[-76.54864,39.29924],[-76.54884,39.29899],[-76.54898,39.29882],[-76.54956,39.29808]],[[-76.56396,39.26391],[-76.56426,39.26371]],[[-76.56401,39.26376],[-76.56376,39.26393]],[[-76.5926,39.24094],[-76.59098,39.24096]],[[-76.58942,39.24098],[-76.5888,39.24099]],[[-76.5888,39.24099],[-76.58806,39.241]],[[-76.58529,39.24103],[-76.5841,39.24104]],[[-76.59447,39.241],[-76.59996,39.24092]],[[-76.59447,39.24091],[-76.59321,39.24093]],[[-76.59321,39.24093],[-76.5926,39.24094]],[[-76.58523,39.24112],[-76.58645,39.24111]],[[-76.58856,39.24108],[-76.5895,39.24107],[-76.58961,39.24107]],[[-76.59055,39.24109],[-76.59268,39.24104]],[[-76.59328,39.24102],[-76.59447,39.241]],[[-76.5841,39.24104],[-76.58354,39.24104],[-76.58274,39.24107],[-76.58247,39.2411],[-76.58227,39.24113],[-76.58192,39.24119],[-76.58164,39.24125],[-76.58126,39.24135],[-76.58083,39.24149],[-76.58045,39.24164],[-76.58004,39.24185],[-76.57969,39.24205],[-76.57952,39.24218],[-76.57937,39.2423],[-76.57922,39.24243],[-76.5791,39.24253],[-76.57898,39.24266],[-76.57887,39.24278],[-76.57864,39.24307],[-76.57861,39.24312]],[[-76.58404,39.24113],[-76.58523,39.24112]],[[-76.6134,39.23951],[-76.61299,39.23962],[-76.61254,39.23973]],[[-76.60878,39.24032],[-76.60995,39.24018]],[[-76.54323,39.30708],[-76.54345,39.30669]],[[-76.54296,39.30755],[-76.54323,39.30708]],[[-76.55325,39.28079],[-76.55328,39.2813]],[[-76.59996,39.24084],[-76.59447,39.24091]],[[-76.64433,39.23104],[-76.64385,39.23095],[-76.64192,39.23061]],[[-76.64427,39.23125],[-76.64442,39.23128],[-76.64583,39.23154],[-76.64914,39.23215]],[[-76.66611,39.23334],[-76.6656,39.23347],[-76.66483,39.23362],[-76.66419,39.23372],[-76.66351,39.2338],[-76.66288,39.23387],[-76.66201,39.2339]],[[-76.70879,39.21841],[-76.70915,39.21845],[-76.70954,39.21849],[-76.70998,39.21856],[-76.7104,39.21863],[-76.71068,39.2187],[-76.71095,39.21876],[-76.71116,39.21882]],[[-76.71298,39.21928],[-76.71259,39.21915],[-76.71231,39.21906],[-76.71184,39.2189],[-76.7112,39.21872]],[[-76.58715,39.2411],[-76.58727,39.2411]],[[-76.62162,39.23204],[-76.61889,39.23533],[-76.6177,39.23676],[-76.61742,39.23709],[-76.61718,39.23734],[-76.61692,39.23759],[-76.61662,39.23783],[-76.61633,39.23807],[-76.61601,39.23829],[-76.61566,39.23851],[-76.61524,39.23875],[-76.61486,39.23895],[-76.61437,39.23917],[-76.61387,39.23936],[-76.61362,39.23944]],[[-76.61079,39.24008],[-76.61107,39.24004]],[[-76.60684,39.24047],[-76.60646,39.24051],[-76.60577,39.2406],[-76.60517,39.24066],[-76.60458,39.2407],[-76.60397,39.24074],[-76.6036,39.24076]],[[-76.56223,39.26502],[-76.56204,39.26515]],[[-76.56229,39.26508],[-76.56348,39.26424]],[[-76.56204,39.26515],[-76.56153,39.26553],[-76.5611,39.26587],[-76.56056,39.26634]],[[-76.61362,39.23944],[-76.6134,39.23951]],[[-76.71532,39.22049],[-76.71418,39.21986]],[[-76.71515,39.22066],[-76.71756,39.22199],[-76.71796,39.22221],[-76.7183,39.22238],[-76.71851,39.22247],[-76.7188,39.22257],[-76.71904,39.22265],[-76.71929,39.22272],[-76.71951,39.22277],[-76.7197,39.2228]],[[-76.70313,39.21827],[-76.70335,39.21826],[-76.70402,39.21825],[-76.70483,39.21826]],[[-76.58961,39.24107],[-76.58979,39.24108]],[[-76.56057,39.26648],[-76.56083,39.26624]],[[-76.6036,39.24076],[-76.60332,39.24078],[-76.60262,39.24079],[-76.59996,39.24084]],[[-76.65603,39.23317],[-76.64525,39.23121]],[[-76.65596,39.2334],[-76.65775,39.23372],[-76.65856,39.23387],[-76.65926,39.23396],[-76.65994,39.23403],[-76.66052,39.23408],[-76.66134,39.23409]],[[-76.57861,39.24312],[-76.5784,39.2434],[-76.578,39.24395],[-76.57755,39.24466],[-76.57664,39.24602]],[[-76.58727,39.2411],[-76.58804,39.24109]],[[-76.58727,39.24101],[-76.58715,39.24101]],[[-76.54423,39.30534],[-76.54444,39.30497],[-76.54468,39.30457],[-76.54492,39.30417],[-76.54518,39.30378],[-76.54546,39.3034],[-76.54571,39.30307],[-76.54595,39.30275],[-76.54599,39.3027]],[[-76.68029,39.22571],[-76.68374,39.22386]],[[-76.68013,39.22554],[-76.67583,39.22784],[-76.67536,39.22813],[-76.67494,39.22843],[-76.67445,39.22881],[-76.67354,39.22951],[-76.67161,39.23095],[-76.67112,39.23126]],[[-76.55374,39.28911],[-76.55376,39.28936],[-76.55379,39.28975],[-76.55381,39.29019],[-76.55384,39.2906],[-76.55384,39.2907],[-76.55384,39.29079]],[[-76.58806,39.241],[-76.58727,39.24101]],[[-76.58645,39.24111],[-76.58715,39.2411]],[[-76.58638,39.24102],[-76.58529,39.24103]],[[-76.54748,39.30055],[-76.54725,39.30084]],[[-76.54797,39.29995],[-76.54771,39.30026]],[[-76.60863,39.24034],[-76.60878,39.24032]],[[-76.61039,39.24013],[-76.61079,39.24008]],[[-76.54345,39.30669],[-76.54364,39.30638],[-76.5438,39.30608],[-76.54416,39.30547],[-76.54423,39.30534]],[[-76.55991,39.26708],[-76.56057,39.26648]],[[-76.56083,39.26624],[-76.56105,39.26604]],[[-76.57939,39.24246],[-76.57949,39.24237],[-76.57957,39.24231],[-76.57979,39.24214],[-76.5801,39.24195],[-76.58045,39.24178],[-76.58076,39.24163],[-76.58104,39.24153],[-76.58134,39.24144],[-76.58169,39.24135],[-76.5821,39.24126],[-76.58258,39.2412],[-76.58299,39.24117],[-76.58333,39.24116],[-76.58367,39.24114],[-76.58404,39.24113]],[[-76.55798,39.26883],[-76.55871,39.26817],[-76.55968,39.26729],[-76.55991,39.26708]],[[-76.59098,39.24096],[-76.59028,39.24097]],[[-76.58804,39.24109],[-76.58856,39.24108]],[[-76.54726,39.30104],[-76.5476,39.3006],[-76.54781,39.30033]],[[-76.54708,39.30128],[-76.54726,39.30104]],[[-76.54645,39.30211],[-76.54655,39.30198],[-76.54693,39.30148],[-76.54708,39.30128]],[[-76.54599,39.3027],[-76.54645,39.30211]],[[-76.54781,39.30033],[-76.5482,39.29982],[-76.54824,39.29976]],[[-76.54824,39.29976],[-76.54864,39.29924]],[[-76.54809,39.29978],[-76.54799,39.29992],[-76.54797,39.29995]],[[-76.59028,39.24109],[-76.59055,39.24109]],[[-76.58979,39.24108],[-76.59028,39.24109]],[[-76.59028,39.24097],[-76.58978,39.24097]],[[-76.58978,39.24097],[-76.58942,39.24098]]]}},{"type":"Feature","properties":{"id":"C-I97","name":"I-97","kind":"corridor"},"geometry":{"type":"MultiLineString","coordinates":[[[-76.64489,39.14525],[-76.64462,39.14216],[-76.64453,39.14094],[-76.64448,39.1403]],[[-76.64506,39.14676],[-76.64489,39.14525]],[[-76.64413,39.16218],[-76.64449,39.16147]],[[-76.63222,39.19842],[-76.63229,39.19775]],[[-76.64448,39.1403],[-76.64429,39.13802],[-76.6442,39.13722],[-76.64409,39.13643],[-76.64396,39.13564],[-76.64382,39.1349],[-76.64365,39.13415],[-76.64349,39.1335],[-76.64334,39.1329]],[[-76.64449,39.16147],[-76.64501,39.16027],[-76.64517,39.15982],[-76.64529,39.15948],[-76.64542,39.15899],[-76.64554,39.15858],[-76.64563,39.15814],[-76.64571,39.15767],[-76.64579,39.15706],[-76.64583,39.15672],[-76.64585,39.15627],[-76.64586,39.15584],[-76.64587,39.15541],[-76.64584,39.15495],[-76.64554,39.15147]],[[-76.63804,39.17395],[-76.63841,39.17339],[-76.63877,39.17283],[-76.6391,39.17228],[-76.63937,39.17179],[-76.63962,39.17133],[-76.63989,39.17082],[-76.6421,39.16624]],[[-76.63418,39.17958],[-76.63441,39.17909],[-76.6348,39.17848],[-76.63611,39.17667]],[[-76.6421,39.16624],[-76.64244,39.16554]],[[-76.63914,39.17174],[-76.63887,39.1722],[-76.63854,39.17276],[-76.63847,39.17287]],[[-76.64178,39.1664],[-76.6416,39.16678]],[[-76.6416,39.16678],[-76.63966,39.17075],[-76.6394,39.17126],[-76.63914,39.17174]],[[-76.63693,39.17517],[-76.63641,39.17588]],[[-76.63227,39.19451],[-76.63202,39.19622],[-76.632,39.19641]],[[-76.63597,39.17651],[-76.63461,39.1784],[-76.6342,39.17901],[-76.634,39.17932],[-76.63377,39.17968]],[[-76.63377,39.17968],[-76.63347,39.18017],[-76.63328,39.18051],[-76.63313,39.18082],[-76.633,39.18111]],[[-76.633,39.18111],[-76.63287,39.18148],[-76.63274,39.18189],[-76.6326,39.18231],[-76.63251,39.18272],[-76.63243,39.18319],[-76.63237,39.18357],[-76.63234,39.18395],[-76.63231,39.18442],[-76.6323,39.18489],[-76.63231,39.18534],[-76.6326,39.18908],[-76.63263,39.18953],[-76.63265,39.19001],[-76.63264,39.19047],[-76.63262,39.19099],[-76.63258,39.1915],[-76.63254,39.192],[-76.63227,39.19451]],[[-76.64244,39.16554],[-76.64278,39.16485]],[[-76.64409,39.13954],[-76.64424,39.14094],[-76.64437,39.14217],[-76.64465,39.14527]],[[-76.64212,39.1657],[-76.64178,39.1664]],[[-76.64381,39.16207],[-76.64298,39.16389],[-76.64257,39.1648],[-76.64212,39.1657]],[[-76.64541,39.15704],[-76.64533,39.15764],[-76.64525,39.15809],[-76.64516,39.15853],[-76.64506,39.15894],[-76.64495,39.15928]],[[-76.64554,39.15147],[-76.64544,39.15029],[-76.64533,39.1493]],[[-76.64531,39.1532],[-76.64546,39.15495],[-76.64548,39.15539],[-76.64549,39.15582],[-76.64548,39.15625],[-76.64545,39.15669],[-76.64541,39.15704]],[[-76.64469,39.14581],[-76.64476,39.14676],[-76.64484,39.14794],[-76.64494,39.14912],[-76.64505,39.1503],[-76.64515,39.15148],[-76.64531,39.1532]],[[-76.64465,39.14527],[-76.64469,39.14581]],[[-76.643,39.13294],[-76.64316,39.13353],[-76.64331,39.13417],[-76.64348,39.13494],[-76.64362,39.13566],[-76.64375,39.13646],[-76.64386,39.13725],[-76.64396,39.13803],[-76.64409,39.13954]],[[-76.63655,39.17604],[-76.63712,39.17524]],[[-76.63611,39.17667],[-76.63655,39.17604]],[[-76.63235,39.19718],[-76.63238,39.19699]],[[-76.63193,39.19694],[-76.63185,39.19728]],[[-76.63231,39.19754],[-76.63235,39.19718]],[[-76.64278,39.16485],[-76.64322,39.16395],[-76.64413,39.16218]],[[-76.63712,39.17524],[-76.63804,39.17395]],[[-76.63641,39.17588],[-76.63597,39.17651]],[[-76.63339,39.18123],[-76.63351,39.18091],[-76.63363,39.18059],[-76.63418,39.17958]],[[-76.6452,39.14806],[-76.64518,39.14794],[-76.64506,39.14676]],[[-76.64533,39.1493],[-76.64531,39.14911],[-76.6452,39.14806]],[[-76.63847,39.17287],[-76.63829,39.17316]],[[-76.64495,39.15928],[-76.64491,39.15941],[-76.64481,39.15974],[-76.64465,39.16018],[-76.64413,39.16138],[-76.64381,39.16207]],[[-76.63829,39.17316],[-76.63819,39.17332],[-76.63783,39.17388],[-76.63693,39.17517]],[[-76.632,39.19641],[-76.63197,39.19672],[-76.63193,39.19694]],[[-76.63238,39.19699],[-76.63295,39.19204],[-76.633,39.19151],[-76.63304,39.19101],[-76.63306,39.19049],[-76.63306,39.19003],[-76.63305,39.18952],[-76.63303,39.18909],[-76.63274,39.18535],[-76.63273,39.1849],[-76.63272,39.18445],[-76.63276,39.18397],[-76.6328,39.1836],[-76.63285,39.18323],[-76.63293,39.18279],[-76.63302,39.18239],[-76.63314,39.18196],[-76.63327,39.18156],[-76.63339,39.18123]],[[-76.63229,39.19775],[-76.63231,39.19754]]]}},{"type":"Feature","properties":{"id":"C-BROENING","name":"Broening Highway","kind":"corridor"},"geometry":{"type":"MultiLineString","coordinates":[[[-76.50379,39.23306],[-76.5041,39.23328],[-76.50459,39.23361],[-76.50501,39.23384],[-76.50549,39.23412]],[[-76.52552,39.2522],[-76.52623,39.2527],[-76.52974,39.2552]],[[-76.52552,39.2522],[-76.52511,39.25191],[-76.52432,39.25136],[-76.52351,39.25079],[-76.52329,39.25065],[-76.52315,39.2506],[-76.52305,39.25058],[-76.52286,39.25058],[-76.5227,39.25058]],[[-76.50549,39.23412],[-76.5057,39.23427],[-76.50663,39.23481],[-76.50699,39.235]],[[-76.50699,39.235],[-76.50666,39.23478],[-76.50636,39.23455],[-76.50622,39.2344],[-76.50613,39.23427],[-76.50604,39.23414],[-76.50598,39.23404]],[[-76.50699,39.235],[-76.50716,39.2351]],[[-76.52113,39.25035],[-76.52139,39.25045],[-76.52159,39.25051],[-76.52174,39.25055],[-76.52191,39.25058],[-76.52211,39.25059],[-76.52233,39.25059]],[[-76.52113,39.25035],[-76.52092,39.25023],[-76.52079,39.25012],[-76.52065,39.25],[-76.52049,39.24982]],[[-76.52233,39.25059],[-76.5227,39.25058]],[[-76.50716,39.2351],[-76.50739,39.23525],[-76.50755,39.23537],[-76.50768,39.23549],[-76.50773,39.23554],[-76.50782,39.23562],[-76.5079,39.2357],[-76.50798,39.23579],[-76.50809,39.23593],[-76.5098,39.23841],[-76.51018,39.23895],[-76.51071,39.23972],[-76.51153,39.2409],[-76.5118,39.24129]],[[-76.513,39.243],[-76.51346,39.24368],[-76.51377,39.24412],[-76.51399,39.24442],[-76.51419,39.24465],[-76.51432,39.24479],[-76.51454,39.24501],[-76.51474,39.2452],[-76.51506,39.24548],[-76.5155,39.24581],[-76.516,39.24612],[-76.5166,39.2465],[-76.51697,39.24675],[-76.51786,39.24739],[-76.51898,39.24819]],[[-76.513,39.243],[-76.51234,39.24208],[-76.51201,39.2416],[-76.5118,39.24129]],[[-76.52049,39.24982],[-76.52034,39.24962],[-76.52024,39.24945],[-76.51999,39.24905],[-76.51988,39.24889],[-76.51975,39.24875],[-76.51954,39.24857],[-76.51898,39.24819]],[[-76.54366,39.27945],[-76.54375,39.28085],[-76.54376,39.28102],[-76.54378,39.28143]],[[-76.54307,39.26585],[-76.5431,39.26618]],[[-76.54307,39.26585],[-76.54304,39.26534],[-76.54303,39.26506]],[[-76.54028,39.26026],[-76.53985,39.26003],[-76.53959,39.25989],[-76.53905,39.2596],[-76.53832,39.25922],[-76.538,39.25903]],[[-76.54028,39.26026],[-76.54061,39.26043],[-76.54087,39.26056],[-76.54121,39.26076],[-76.54148,39.26093],[-76.54165,39.26105],[-76.54192,39.26126],[-76.5422,39.26153],[-76.54237,39.26169],[-76.54254,39.26188],[-76.54257,39.26193],[-76.54265,39.26203],[-76.54275,39.2622],[-76.54286,39.26242],[-76.54292,39.26257],[-76.54295,39.26274],[-76.54297,39.26288],[-76.54298,39.2631],[-76.54298,39.26314],[-76.543,39.26342]],[[-76.54327,39.27086],[-76.54318,39.26973],[-76.54313,39.26924],[-76.54318,39.2683],[-76.54318,39.26824],[-76.5432,39.26804],[-76.54322,39.2676],[-76.54321,39.26738],[-76.5432,39.26722],[-76.54319,39.26717],[-76.54318,39.26698],[-76.54317,39.26688],[-76.5431,39.26618]],[[-76.54327,39.27086],[-76.5433,39.27129]],[[-76.54352,39.2746],[-76.54352,39.27466],[-76.54353,39.27476],[-76.54354,39.27493],[-76.54355,39.27505],[-76.54357,39.27542]],[[-76.54352,39.2746],[-76.54348,39.27403],[-76.54345,39.27339],[-76.54344,39.2733],[-76.54344,39.27323],[-76.54342,39.27301],[-76.54342,39.27292]],[[-76.54372,39.27794],[-76.5437,39.27826],[-76.54366,39.27861],[-76.54364,39.2789],[-76.54365,39.27922],[-76.54366,39.27945]],[[-76.54372,39.27794],[-76.54372,39.27788]],[[-76.54337,39.27212],[-76.5433,39.27129]],[[-76.54337,39.27212],[-76.54339,39.27246],[-76.54342,39.27292]],[[-76.54363,39.27647],[-76.54362,39.27625]],[[-76.54363,39.27647],[-76.54364,39.27658],[-76.54372,39.27788]],[[-76.54362,39.27625],[-76.5436,39.27586],[-76.54357,39.27542]],[[-76.538,39.25903],[-76.53758,39.25886],[-76.53709,39.25867]],[[-76.5364,39.2584],[-76.53457,39.25768]],[[-76.5364,39.2584],[-76.53691,39.2586],[-76.53701,39.25864],[-76.53709,39.25867]],[[-76.53457,39.25768],[-76.5338,39.25738],[-76.5326,39.25693],[-76.53242,39.25686]],[[-76.53242,39.25686],[-76.53201,39.25669]],[[-76.53201,39.25669],[-76.5316,39.25647],[-76.53119,39.25624]],[[-76.53119,39.25624],[-76.52974,39.2552]],[[-76.54303,39.26423],[-76.54303,39.26387],[-76.54302,39.26367],[-76.543,39.26342]],[[-76.54303,39.26423],[-76.54303,39.26435]],[[-76.54303,39.26451],[-76.54303,39.26469]],[[-76.54303,39.26451],[-76.54303,39.26435]],[[-76.54303,39.26469],[-76.54303,39.26506]]]}},{"type":"Feature","properties":{"id":"C-HANOVER","name":"Hanover Street","kind":"corridor"},"geometry":{"type":"MultiLineString","coordinates":[[[-76.60793,39.24174],[-76.60778,39.24192],[-76.60773,39.24201]],[[-76.60793,39.24174],[-76.60816,39.24127],[-76.6082,39.24121]],[[-76.60767,39.24246],[-76.60766,39.2425],[-76.60765,39.24254],[-76.60765,39.24257],[-76.60766,39.2426],[-76.60768,39.24264],[-76.6078,39.24282],[-76.60805,39.24312]],[[-76.60767,39.24246],[-76.60779,39.2424],[-76.60783,39.24236],[-76.60784,39.24231],[-76.60785,39.24222],[-76.60786,39.24207],[-76.60787,39.24205]],[[-76.61687,39.25363],[-76.61704,39.25387],[-76.61715,39.25408],[-76.61719,39.2542],[-76.61722,39.25428],[-76.61727,39.25443],[-76.6173,39.2546],[-76.61732,39.25481],[-76.61731,39.25499],[-76.61731,39.25502]],[[-76.61376,39.24985],[-76.6141,39.25026],[-76.61452,39.25075],[-76.61505,39.25139],[-76.61548,39.2519],[-76.6157,39.25217]],[[-76.61718,39.25567],[-76.61641,39.25754]],[[-76.61457,39.26197],[-76.61457,39.26209]],[[-76.61457,39.26197],[-76.6147,39.26161]],[[-76.61589,39.28211],[-76.61589,39.28205],[-76.61587,39.28179],[-76.61585,39.28153]],[[-76.61589,39.28211],[-76.6159,39.28218],[-76.61592,39.28246],[-76.61593,39.28267],[-76.61595,39.28288],[-76.61597,39.28321]],[[-76.61582,39.28098],[-76.61578,39.28045],[-76.61577,39.2804]],[[-76.61479,39.26559],[-76.61483,39.26622]],[[-76.61479,39.26559],[-76.61477,39.2654]],[[-76.61628,39.28771],[-76.61628,39.28762],[-76.61625,39.28729],[-76.61624,39.28718],[-76.61624,39.28709],[-76.6162,39.28668],[-76.61619,39.28654],[-76.61618,39.28643]],[[-76.6164,39.28948],[-76.61644,39.29001],[-76.61646,39.29025],[-76.61646,39.2903]],[[-76.61562,39.27779],[-76.61566,39.27848],[-76.61569,39.27892]],[[-76.61562,39.27779],[-76.61561,39.27763],[-76.61559,39.27738],[-76.61558,39.27725],[-76.61554,39.2767]],[[-76.61457,39.26209],[-76.61458,39.26246]],[[-76.61623,39.25288],[-76.61629,39.25294],[-76.61666,39.25337]],[[-76.6152,39.27152],[-76.61527,39.27258]],[[-76.6152,39.27152],[-76.61512,39.27048]],[[-76.61483,39.26622],[-76.61488,39.26682]],[[-76.61007,39.23747],[-76.61022,39.23715]],[[-76.61007,39.23747],[-76.61005,39.23749],[-76.60987,39.23786],[-76.6098,39.23798]],[[-76.61031,39.23697],[-76.61022,39.23715]],[[-76.61031,39.23697],[-76.61049,39.23662]],[[-76.61534,39.27364],[-76.6154,39.27469]],[[-76.61534,39.27364],[-76.61527,39.27258]],[[-76.61078,39.23605],[-76.61083,39.23595]],[[-76.61078,39.23605],[-76.61057,39.23645]],[[-76.61083,39.23595],[-76.61105,39.2355]],[[-76.60913,39.24433],[-76.61089,39.24645]],[[-76.609,39.2396],[-76.60881,39.23998]],[[-76.609,39.2396],[-76.60919,39.23919],[-76.60935,39.23888],[-76.60953,39.23854]],[[-76.60881,39.23998],[-76.6082,39.24121]],[[-76.61109,39.23543],[-76.61131,39.23498]],[[-76.61109,39.23543],[-76.61105,39.2355]],[[-76.6098,39.23798],[-76.60953,39.23854]],[[-76.61131,39.23498],[-76.61135,39.23491]],[[-76.61546,39.27562],[-76.61544,39.27527],[-76.6154,39.27469]],[[-76.61546,39.27562],[-76.61551,39.27637],[-76.61553,39.27656],[-76.61554,39.2767]],[[-76.61569,39.27892],[-76.61572,39.27936],[-76.61574,39.27975],[-76.61574,39.27983]],[[-76.61049,39.23662],[-76.61057,39.23645]],[[-76.61577,39.2804],[-76.61575,39.27992],[-76.61574,39.27983]],[[-76.61508,39.26943],[-76.61508,39.26937],[-76.61503,39.26867],[-76.61502,39.26845],[-76.615,39.26826]],[[-76.61477,39.2654],[-76.61477,39.26527],[-76.61471,39.2644]],[[-76.61471,39.2644],[-76.6147,39.2643],[-76.61463,39.26327]],[[-76.61498,39.26096],[-76.6147,39.26161]],[[-76.61498,39.26096],[-76.6162,39.25803]],[[-76.60773,39.24201],[-76.6077,39.24207],[-76.60769,39.24214],[-76.60765,39.2423],[-76.60765,39.24233],[-76.60766,39.24237],[-76.60767,39.24246]],[[-76.6117,39.23436],[-76.61158,39.23447],[-76.61156,39.23448],[-76.61135,39.23491]],[[-76.61219,39.24802],[-76.61341,39.24943]],[[-76.61089,39.24645],[-76.61102,39.24661]],[[-76.61488,39.26682],[-76.61493,39.26745]],[[-76.61463,39.26327],[-76.61461,39.26288]],[[-76.61458,39.26246],[-76.61459,39.26253]],[[-76.61666,39.25337],[-76.61681,39.25356],[-76.61687,39.25363]],[[-76.6157,39.25217],[-76.61578,39.25228]],[[-76.61641,39.25754],[-76.6162,39.25803]],[[-76.61593,39.25251],[-76.61603,39.25264]],[[-76.61493,39.26745],[-76.615,39.26826]],[[-76.61603,39.25264],[-76.61616,39.25279],[-76.61623,39.25288]],[[-76.61341,39.24943],[-76.6137,39.24979],[-76.61376,39.24985]],[[-76.61512,39.27048],[-76.61515,39.27038],[-76.61509,39.26948],[-76.61508,39.26943]],[[-76.615,39.26943],[-76.615,39.26948],[-76.61506,39.2702]],[[-76.615,39.26826],[-76.61494,39.26846],[-76.61499,39.26937],[-76.615,39.26943]],[[-76.61461,39.26288],[-76.61459,39.26253]],[[-76.61102,39.24661],[-76.61219,39.24802]],[[-76.61506,39.2702],[-76.61508,39.27038],[-76.61512,39.27048]],[[-76.60805,39.24312],[-76.6082,39.2433],[-76.60855,39.24372],[-76.60862,39.24381],[-76.60874,39.24395],[-76.60913,39.24433]],[[-76.60787,39.24205],[-76.60793,39.24174]],[[-76.61578,39.25228],[-76.61593,39.25251]],[[-76.61731,39.25502],[-76.61729,39.25518],[-76.61718,39.25567]]]}}]}
